{"type":"FeatureCollection","features":[{"type":"Feature","properties":{"id":"873940013ffffff","confidence":"low","m01":15,"m02":15,"m03":15,"m04":17,"m05":19,"m06":22,"m07":24,"m08":25,"m09":23,"m10":19,"m11":17,"m12":15},"geometry":{"type":"Polygon","coordinates":[[[2.7732594183681556,40.91258821719774],[2.7754702939073153,40.90004860699294],[2.790638465140232,40.89592823438018],[2.80360035892128,40.90434783810944],[2.801392954550526,40.91688909118797],[2.786220184276464,40.921009097871085],[2.7732594183681556,40.91258821719774]]]}},{"type":"Feature","properties":{"id":"873940064ffffff","confidence":"low","m01":25,"m02":24,"m03":26,"m04":29,"m05":32,"m06":37,"m07":41,"m08":42,"m09":39,"m10":33,"m11":28,"m12":25},"geometry":{"type":"Polygon","coordinates":[[[2.961519308547135,41.076411931197896],[2.963710368539857,41.063874474516034],[2.9789230327036194,41.05974142619053],[2.99194924303504,41.068146183436596],[2.9897616891179317,41.080685265546386],[2.9745444178391294,41.08481796519567],[2.961519308547135,41.076411931197896]]]}},{"type":"Feature","properties":{"id":"87394009bffffff","confidence":"low","m01":35,"m02":34,"m03":36,"m04":40,"m05":45,"m06":52,"m07":57,"m08":59,"m09":54,"m10":46,"m11":39,"m12":36},"geometry":{"type":"Polygon","coordinates":[[[2.7716677269226637,40.757735940179806],[2.7738748183407136,40.74518165654324],[2.7890155085948236,40.74104702443466],[2.8019536890322496,40.749467042774704],[2.799750056090314,40.762022975018226],[2.784604783286097,40.76615724052052],[2.7716677269226637,40.757735940179806]]]}},{"type":"Feature","properties":{"id":"87394010bffffff","confidence":"low","m01":45,"m02":44,"m03":46,"m04":52,"m05":58,"m06":67,"m07":73,"m08":76,"m09":70,"m10":59,"m11":51,"m12":46},"geometry":{"type":"Polygon","coordinates":[[[2.7748568931831397,41.06727718886597],[2.7770715657948952,41.05475241064163],[2.7922673179220494,41.05064632757076],[2.805253012099727,41.0590653880944],[2.8030418234186216,41.0715918034323],[2.7878414556701596,41.07569752134235],[2.7748568931831397,41.06727718886597]]]}},{"type":"Feature","properties":{"id":"873940114ffffff","confidence":"low","m01":21,"m02":20,"m03":21,"m04":24,"m05":27,"m06":31,"m07":34,"m08":35,"m09":32,"m10":27,"m11":23,"m12":21},"geometry":{"type":"Polygon","coordinates":[[[2.616661244711544,41.06221169999109],[2.618895931914023,41.04969802616137],[2.634077621326274,41.045615032324335],[2.6470292454473467,41.054046091643556],[2.6447980235202753,41.06656141229922],[2.6296117112340522,41.07064402701562],[2.616661244711544,41.06221169999109]]]}},{"type":"Feature","properties":{"id":"87394019cffffff","confidence":"low","m01":31,"m02":30,"m03":32,"m04":35,"m05":40,"m06":46,"m07":50,"m08":52,"m09":48,"m10":40,"m11":35,"m12":31},"geometry":{"type":"Polygon","coordinates":[[[2.61535162541659,40.90762105379447],[2.617582442446212,40.895092560693435],[2.632736599790122,40.890995206810956],[2.6456645453991197,40.89942672610513],[2.6434371809827173,40.91195687180328],[2.62827841738665,40.916053845814254],[2.61535162541659,40.90762105379447]]]}},{"type":"Feature","properties":{"id":"873940464ffffff","confidence":"low","m01":41,"m02":40,"m03":42,"m04":47,"m05":53,"m06":61,"m07":67,"m08":69,"m09":64,"m10":53,"m11":46,"m12":42},"geometry":{"type":"Polygon","coordinates":[[[2.614046744037059,40.75286740673947],[2.6162737042449375,40.74032425261674],[2.631400429182609,40.73621256860573],[2.6443047826798938,40.744644419449926],[2.642081262492331,40.75718923191375],[2.6269499478348237,40.76130053539459],[2.614046744037059,40.75286740673947]]]}},{"type":"Feature","properties":{"id":"873940509ffffff","confidence":"low","m01":16,"m02":16,"m03":17,"m04":19,"m05":22,"m06":25,"m07":27,"m08":28,"m09":26,"m10":22,"m11":19,"m12":17},"geometry":{"type":"Polygon","coordinates":[[[2.4392966190210688,40.764405185160065],[2.441545980915249,40.75187607881825],[2.45665998727271,40.747791412523924],[2.4695292300040443,40.756236248680445],[2.4672832889076917,40.76876702343218],[2.4521646833254085,40.7728512938161],[2.4392966190210688,40.764405185160065]]]}},{"type":"Feature","properties":{"id":"873940533ffffff","confidence":"low","m01":26,"m02":26,"m03":27,"m04":31,"m05":35,"m06":40,"m07":44,"m08":45,"m09":42,"m10":35,"m11":30,"m12":27},"geometry":{"type":"Polygon","coordinates":[[[2.2821406597172937,40.75908864079665],[2.284409697032974,40.74657077365425],[2.299509304743869,40.7425089191613],[2.3123444800408928,40.75096534179726],[2.310078844879451,40.76348488688685],[2.2949746313066095,40.76754633158847],[2.2821406597172937,40.75908864079665]]]}},{"type":"Feature","properties":{"id":"873940822ffffff","confidence":"low","m01":36,"m02":36,"m03":38,"m04":42,"m05":48,"m06":54,"m07":60,"m08":62,"m09":57,"m10":48,"m11":41,"m12":37},"geometry":{"type":"Polygon","coordinates":[[[2.601811108304214,41.38742668946719],[2.604056245177253,41.37494604913288],[2.619294800636124,41.370896043447445],[2.632292877308545,41.37932705709261],[2.630051230569932,41.391809333054546],[2.6148080160503744,41.395858959952996],[2.601811108304214,41.38742668946719]]]}},{"type":"Feature","properties":{"id":"873940871ffffff","confidence":"low","m01":46,"m02":46,"m03":48,"m04":54,"m05":61,"m06":69,"m07":76,"m08":79,"m09":73,"m10":61,"m11":52,"m12":48},"geometry":{"type":"Polygon","coordinates":[[[2.7888802697314943,41.397069456343836],[2.791101738122982,41.384576107603316],[2.806357603023566,41.38049905407641],[2.8193966493571714,41.388915711782055],[2.817178693613589,41.40141068461199],[2.8019181779186106,41.40548737586032],[2.7888802697314943,41.397069456343836]]]}},{"type":"Feature","properties":{"id":"8739408aaffffff","confidence":"low","m01":22,"m02":22,"m03":23,"m04":26,"m05":29,"m06":33,"m07":37,"m08":38,"m09":35,"m10":29,"m11":25,"m12":23},"geometry":{"type":"Polygon","coordinates":[[[2.6005235809130065,41.233197577789305],[2.602764811014488,41.22070178945914],[2.617975627771921,41.21663735528077],[2.6309498557023,41.22506908937045],[2.6287121029365013,41.23756651915537],[2.6134966439357856,41.241630573603366],[2.6005235809130065,41.233197577789305]]]}},{"type":"Feature","properties":{"id":"8739408c1ffffff","confidence":"low","m01":32,"m02":32,"m03":34,"m04":37,"m05":42,"m06":48,"m07":53,"m08":55,"m09":51,"m10":43,"m11":37,"m12":33},"geometry":{"type":"Polygon","coordinates":[[[2.7872509811065145,41.242729033595126],[2.7894686295226165,41.23022051770226],[2.8046966952964296,41.226129117762866],[2.8177117457143055,41.234546597173264],[2.8154975970261193,41.24705674296989],[2.8002648972275037,41.251147779664],[2.7872509811065145,41.242729033595126]]]}},{"type":"Feature","properties":{"id":"873940912ffffff","confidence":"low","m01":42,"m02":42,"m03":44,"m04":49,"m05":55,"m06":63,"m07":70,"m08":72,"m09":66,"m10":56,"m11":48,"m12":43},"geometry":{"type":"Polygon","coordinates":[[[2.453966536243381,41.402832954255686],[2.4562309319841127,41.39036473461663],[2.471459755775918,41.38633828153939],[2.4844288507519794,41.39478044000886],[2.482167929145733,41.40725030344511],[2.4669344374507856,41.41127636482098],[2.453966536243381,41.402832954255686]]]}},{"type":"Feature","properties":{"id":"873940969ffffff","confidence":"low","m01":18,"m02":18,"m03":19,"m04":21,"m05":24,"m06":27,"m07":30,"m08":31,"m09":29,"m10":24,"m11":21,"m12":19},"geometry":{"type":"Polygon","coordinates":[[[2.790515512496062,41.551240352446065],[2.792740813996431,41.53876232570219],[2.808024579679541,41.534699646274404],[2.8210877105423746,41.54311535502558],[2.8188659346815794,41.55559500002001],[2.803577501343257,41.55965731822799],[2.790515512496062,41.551240352446065]]]}},{"type":"Feature","properties":{"id":"873940b32ffffff","confidence":"low","m01":28,"m02":28,"m03":29,"m04":33,"m05":37,"m06":42,"m07":46,"m08":48,"m09":44,"m10":37,"m11":32,"m12":29},"geometry":{"type":"Polygon","coordinates":[[[2.947944960960749,41.40211767394136],[2.950146154409782,41.38961330549068],[2.965415963216485,41.385512938932806],[2.978489220779077,41.39391728930311],[2.976291558753023,41.406423272056266],[2.961017106775355,41.41052329035357],[2.947944960960749,41.40211767394136]]]}},{"type":"Feature","properties":{"id":"873940b9cffffff","confidence":"low","m01":38,"m02":38,"m03":40,"m04":44,"m05":50,"m06":57,"m07":63,"m08":65,"m09":60,"m10":50,"m11":43,"m12":39},"geometry":{"type":"Polygon","coordinates":[[[2.963464086822187,41.2310462797995],[2.9656588699549933,41.21852383114882],[2.980899274055579,41.214405018740464],[2.993949517798702,41.22280900299034],[2.9917582536936846,41.23533307129519],[2.976513225857946,41.23945153591129],[2.963464086822187,41.2310462797995]]]}},{"type":"Feature","properties":{"id":"873940c23ffffff","confidence":"low","m01":48,"m02":48,"m03":50,"m04":56,"m05":63,"m06":72,"m07":79,"m08":82,"m09":76,"m10":64,"m11":54,"m12":50},"geometry":{"type":"Polygon","coordinates":[[[2.2835480428242145,41.06797564127309],[2.285825114708386,41.05548723576],[2.3009794959644108,41.051454372490944],[2.3138614435646896,41.05991032337259],[2.3115877986797475,41.07240039526614],[2.296428778224715,41.07643285009635],[2.2835480428242145,41.06797564127309]]]}},{"type":"Feature","properties":{"id":"873940c71ffffff","confidence":"low","m01":24,"m02":24,"m03":25,"m04":28,"m05":32,"m06":36,"m07":40,"m08":41,"m09":38,"m10":32,"m11":27,"m12":25},"geometry":{"type":"Polygon","coordinates":[[[2.44127535463583,41.073492536742286],[2.443532607386869,41.060992917630486],[2.4587014894572725,41.056937103693286],[2.4716177502962395,41.06538130359108],[2.4693639433902614,41.07788257956759],[2.4541904288330967,41.081937998983825],[2.44127535463583,41.073492536742286]]]}},{"type":"Feature","properties":{"id":"873940cabffffff","confidence":"low","m01":34,"m02":34,"m03":35,"m04":39,"m05":45,"m06":51,"m07":56,"m08":58,"m09":54,"m10":45,"m11":39,"m12":35},"geometry":{"type":"Polygon","coordinates":[[[2.2828430777590722,40.913613430171104],[2.285116125263454,40.90111021509978],[2.300243070166743,40.897062841437716],[2.3131015890857234,40.905519092205125],[2.3108319561241863,40.91802397945399],[2.2957003887354777,40.9220709439549],[2.2828430777590722,40.913613430171104]]]}},{"type":"Feature","properties":{"id":"873940cc1ffffff","confidence":"low","m01":44,"m02":44,"m03":46,"m04":51,"m05":58,"m06":66,"m07":73,"m08":75,"m09":69,"m10":58,"m11":50,"m12":45},"geometry":{"type":"Polygon","coordinates":[[[2.4402841949973193,40.91903030276312],[2.442537495420468,40.90651586114282],[2.457678889918883,40.902445606182035],[2.4705715988430423,40.91089018830372],[2.4683217317070834,40.923406292574974],[2.4531757213978245,40.92747615227402],[2.4402841949973193,40.91903030276312]]]}},{"type":"Feature","properties":{"id":"873940d12ffffff","confidence":"low","m01":20,"m02":20,"m03":21,"m04":23,"m05":26,"m06":30,"m07":33,"m08":34,"m09":31,"m10":26,"m11":23,"m12":21},"geometry":{"type":"Polygon","coordinates":[[[2.108620124989106,41.07873166299079],[2.110919560909931,41.066257431044306],[2.1260606409680425,41.06225160835304],[2.1389069323535574,41.070720441596315],[2.1366109037724854,41.083196349740476],[2.1214651754913065,41.08720174863873],[2.108620124989106,41.07873166299079]]]}},{"type":"Feature","properties":{"id":"873940d69ffffff","confidence":"low","m01":30,"m02":30,"m03":31,"m04":35,"m05":39,"m06":45,"m07":49,"m08":51,"m09":47,"m10":39,"m11":34,"m12":31},"geometry":{"type":"Polygon","coordinates":[[[2.442270117477761,41.227789902591674],[2.444531336428163,41.21530526260276],[2.4597278060440178,41.21126391862403],[2.4726677049902035,41.21970760852619],[2.470409944511778,41.232193899567115],[2.4552088256427784,41.23623484985789],[2.442270117477761,41.227789902591674]]]}},{"type":"Feature","properties":{"id":"873940d9affffff","confidence":"low","m01":40,"m02":40,"m03":41,"m04":46,"m05":52,"m06":60,"m07":66,"m08":68,"m09":63,"m10":53,"m11":45,"m12":41},"geometry":{"type":"Polygon","coordinates":[[[2.1082319913663956,40.92449968894687],[2.1105273218347214,40.91201064455679],[2.12564101272608,40.90799023179965],[2.1384640036391542,40.91645928813064],[2.136172068160166,40.92895001453051],[2.1210537458092005,40.932970002782916],[2.1082319913663956,40.92449968894687]]]}},{"type":"Feature","properties":{"id":"873944064ffffff","confidence":"low","m01":16,"m02":16,"m03":16,"m04":18,"m05":21,"m06":24,"m07":26,"m08":27,"m09":25,"m10":21,"m11":18,"m12":16},"geometry":{"type":"Polygon","coordinates":[[[2.1036176978355603,41.884570901232685],[2.1059397983024035,41.87217737576382],[2.1212254883937804,41.868249551547244],[2.134193814949695,41.87671567217956],[2.1318751868422265,41.88911084335913],[2.1165847588162365,41.89303824840005],[2.1036176978355603,41.884570901232685]]]}},{"type":"Feature","properties":{"id":"8739440adffffff","confidence":"low","m01":26,"m02":26,"m03":27,"m04":30,"m05":34,"m06":39,"m07":43,"m08":44,"m09":41,"m10":34,"m11":29,"m12":27},"geometry":{"type":"Polygon","coordinates":[[[1.93421166840434,41.70394680007291],[1.9365502615086805,41.6915476059508],[1.9517881402558,41.6876277051987],[1.964692150005183,41.69610743416568],[1.9623569941056387,41.70850829061658],[1.9471143902514145,41.71242775597033],[1.93421166840434,41.70394680007291]]]}},{"type":"Feature","properties":{"id":"8739440eeffffff","confidence":"low","m01":36,"m02":36,"m03":37,"m04":42,"m05":47,"m06":54,"m07":59,"m08":61,"m09":56,"m10":47,"m11":41,"m12":37},"geometry":{"type":"Polygon","coordinates":[[[2.092615083145862,41.7103491111584],[2.0949337704013207,41.69793864838773],[2.110186827292662,41.69399566811654],[2.1231259147507786,41.70246357226952],[2.120810684165747,41.71487568810635],[2.1055529084549263,41.71881824692611],[2.092615083145862,41.7103491111584]]]}},{"type":"Feature","properties":{"id":"873944114ffffff","confidence":"low","m01":46,"m02":45,"m03":48,"m04":53,"m05":60,"m06":69,"m07":75,"m08":78,"m09":72,"m10":60,"m11":52,"m12":47},"geometry":{"type":"Polygon","coordinates":[[[1.758223519071089,41.866742168227134],[1.7605889381354132,41.85437285581919],[1.7758405859854267,41.850495044053],[1.788731564787796,41.85898699448724],[1.7863695750596038,41.871357972777005],[1.7711131761828147,41.87523533494741],[1.758223519071089,41.866742168227134]]]}},{"type":"Feature","properties":{"id":"873944156ffffff","confidence":"low","m01":22,"m02":22,"m03":23,"m04":25,"m05":28,"m06":33,"m07":36,"m08":37,"m09":34,"m10":29,"m11":25,"m12":22},"geometry":{"type":"Polygon","coordinates":[[[1.944869329671385,41.87806907972034],[1.9472114254108204,41.865686802893805],[1.9624818884880801,41.86178213968861],[1.975414999098855,41.870260186656715],[1.9730763561374598,41.88264411844961],[1.9578011487807156,41.88654834850891],[1.944869329671385,41.87806907972034]]]}},{"type":"Feature","properties":{"id":"87394419cffffff","confidence":"low","m01":32,"m02":31,"m03":33,"m04":37,"m05":42,"m06":47,"m07":52,"m08":54,"m09":50,"m10":42,"m11":36,"m12":33},"geometry":{"type":"Polygon","coordinates":[[[1.7584710325790889,41.713613761759014],[1.7608321069365909,41.70122886885957],[1.7760559642142855,41.697336176629186],[1.7889234798341984,41.70582882823777],[1.7865658223424217,41.71821539298756],[1.771337231360467,41.722107634473346],[1.7584710325790889,41.713613761759014]]]}},{"type":"Feature","properties":{"id":"873944202ffffff","confidence":"low","m01":42,"m02":41,"m03":43,"m04":48,"m05":55,"m06":62,"m07":69,"m08":71,"m09":66,"m10":55,"m11":47,"m12":43},"geometry":{"type":"Polygon","coordinates":[[[2.4560139625500423,41.71055324077113],[2.458286354627855,41.69811579442003],[2.4735708923062694,41.694118417018785],[2.486587738831908,41.70255887572676],[2.484318846524693,41.714997954119546],[2.4690296069323865,41.71899494197259],[2.4560139625500423,41.71055324077113]]]}},{"type":"Feature","properties":{"id":"873944250ffffff","confidence":"low","m01":18,"m02":17,"m03":18,"m04":20,"m05":23,"m06":26,"m07":29,"m08":30,"m09":28,"m10":23,"m11":20,"m12":18},"geometry":{"type":"Polygon","coordinates":[[[2.615192987790154,41.716254619592284],[2.617445153186914,41.70380607144066],[2.632744183590729,41.69978538127056],[2.6457957423718614,41.70821361499716],[2.643547095926649,41.72066378562283],[2.6282433707635633,41.724684100261236],[2.615192987790154,41.716254619592284]]]}},{"type":"Feature","properties":{"id":"87394428affffff","confidence":"low","m01":28,"m02":27,"m03":29,"m04":32,"m05":36,"m06":41,"m07":45,"m08":47,"m09":43,"m10":36,"m11":31,"m12":28},"geometry":{"type":"Polygon","coordinates":[[[2.454988381289775,41.5567786063529],[2.457256768161515,41.54432569690736],[2.4725133980381377,41.540313768377686],[2.485506324921703,41.548755140172446],[2.4832414249671313,41.561209687549415],[2.467980110228303,41.56522122540831],[2.454988381289775,41.5567786063529]]]}},{"type":"Feature","properties":{"id":"8739442d8ffffff","confidence":"low","m01":38,"m02":37,"m03":39,"m04":44,"m05":49,"m06":56,"m07":62,"m08":64,"m09":59,"m10":50,"m11":43,"m12":39},"geometry":{"type":"Polygon","coordinates":[[[2.613875942575702,41.56238213312102],[2.616124177041203,41.549918107828525],[2.6313952485094805,41.54588293594062],[2.6444227622809984,41.554312166229494],[2.6421780338098126,41.566777819874176],[2.626902284592917,41.5708126150894],[2.613875942575702,41.56238213312102]]]}},{"type":"Feature","properties":{"id":"873944335ffffff","confidence":"low","m01":48,"m02":47,"m03":49,"m04":55,"m05":62,"m06":71,"m07":78,"m08":81,"m09":75,"m10":63,"m11":54,"m12":49},"geometry":{"type":"Polygon","coordinates":[[[2.2802155369831767,41.874506632434404],[2.2825148454936053,41.86209892330179],[2.2978140989300204,41.85814364763692],[2.3108187715132695,41.86659648507884],[2.30852295559493,41.879005830189854],[2.293218973502455,41.882960702088575],[2.2802155369831767,41.874506632434404]]]}},{"type":"Feature","properties":{"id":"873944348ffffff","confidence":"low","m01":24,"m02":23,"m03":24,"m04":27,"m05":31,"m06":35,"m07":39,"m08":40,"m09":37,"m10":31,"m11":27,"m12":24},"geometry":{"type":"Polygon","coordinates":[[[2.6165148608926003,41.869953838236675],[2.6187709709587907,41.85752091919948],[2.6340980628459385,41.85351473670149],[2.647173755539214,41.86194184775473],[2.6449211774537953,41.874376383364904],[2.6295893737037526,41.878382191564036],[2.6165148608926003,41.869953838236675]]]}},{"type":"Feature","properties":{"id":"873944376ffffff","confidence":"low","m01":33,"m02":33,"m03":35,"m04":39,"m05":44,"m06":50,"m07":55,"m08":57,"m09":53,"m10":44,"m11":38,"m12":34},"geometry":{"type":"Polygon","coordinates":[[[2.4394501544747405,41.88055236770554],[2.4417292638805237,41.86813351538648],[2.4570433005524213,41.864154930565476],[2.4700829485763447,41.87259558802667],[2.467807351156616,41.885016066872126],[2.45248859273166,41.88899426194157],[2.4394501544747405,41.88055236770554]]]}},{"type":"Feature","properties":{"id":"873944385ffffff","confidence":"low","m01":43,"m02":43,"m03":45,"m04":50,"m05":57,"m06":65,"m07":72,"m08":74,"m09":68,"m10":57,"m11":49,"m12":45},"geometry":{"type":"Polygon","coordinates":[[[2.279509929733107,41.7210335594036],[2.2818051349088515,41.708610234778504],[2.2970764253775147,41.704640302985624],[2.3100572211341523,41.71309410099409],[2.3077654957350395,41.725519067525966],[2.292489493809296,41.729488594348844],[2.279509929733107,41.7210335594036]]]}},{"type":"Feature","properties":{"id":"87394441effffff","confidence":"low","m01":19,"m02":19,"m03":20,"m04":22,"m05":25,"m06":29,"m07":32,"m08":33,"m09":30,"m10":26,"m11":22,"m12":20},"geometry":{"type":"Polygon","coordinates":[[[1.6016258125418925,41.4001955270407],[1.6039978033888973,41.38779132585211],[1.6191508845783968,41.3838917448231],[1.6319366789432441,41.39239683179549],[1.6295680607974967,41.40480272578815],[1.6144102745890336,41.40870184019223],[1.6016258125418925,41.4001955270407]]]}},{"type":"Feature","properties":{"id":"873944464ffffff","confidence":"low","m01":29,"m02":29,"m03":30,"m04":34,"m05":38,"m06":44,"m07":48,"m08":50,"m09":46,"m10":39,"m11":33,"m12":30},"geometry":{"type":"Polygon","coordinates":[[[1.7587176454449762,41.5603134549706],[1.7610743910256803,41.547913131786245],[1.7762705588227987,41.54400558422407],[1.7891146965164038,41.55249881184117],[1.7867613553988895,41.56490081282074],[1.771560471125476,41.568807908581114],[1.7587176454449762,41.5603134549706]]]}},{"type":"Feature","properties":{"id":"8739444e8ffffff","confidence":"low","m01":39,"m02":39,"m03":41,"m04":46,"m05":52,"m06":59,"m07":65,"m08":67,"m09":62,"m10":52,"m11":45,"m12":40},"geometry":{"type":"Polygon","coordinates":[[[1.7764843740798058,41.39050517773281],[1.7788341500355707,41.37808662352055],[1.7940013786293725,41.37416006377414],[1.806823527072626,41.38265250975918],[1.8044771440311633,41.395072747327625],[1.7893052186394236,41.398998855746356],[1.7764843740798058,41.39050517773281]]]}},{"type":"Feature","properties":{"id":"873944533ffffff","confidence":"low","m01":15,"m02":15,"m03":16,"m04":18,"m05":20,"m06":23,"m07":25,"m08":26,"m09":24,"m10":20,"m11":17,"m12":16},"geometry":{"type":"Polygon","coordinates":[[[1.4261568763427608,41.56284006828813],[1.4285554394724078,41.55046554429189],[1.443721594788308,41.546607838701334],[1.456493916106653,41.55512513825183],[1.4540987174673006,41.56750135843605],[1.4389278320134327,41.57135858306777],[1.4261568763427608,41.56284006828813]]]}},{"type":"Feature","properties":{"id":"873944556ffffff","confidence":"low","m01":25,"m02":25,"m03":26,"m04":29,"m05":33,"m06":38,"m07":42,"m08":43,"m09":40,"m10":33,"m11":29,"m12":26},"geometry":{"type":"Polygon","coordinates":[[[1.6010942613518024,41.553563371661646],[1.6034706361604247,41.54117443499998],[1.6186512493483347,41.537289750044124],[1.6314602089089996,41.5457944676187],[1.6290872190302812,41.55818509115294],[1.613901883658887,41.56206931042969],[1.6010942613518024,41.553563371661646]]]}},{"type":"Feature","properties":{"id":"87394459cffffff","confidence":"low","m01":35,"m02":35,"m03":37,"m04":41,"m05":46,"m06":53,"m07":58,"m08":60,"m09":55,"m10":46,"m11":40,"m12":36},"geometry":{"type":"Polygon","coordinates":[[[1.416656870419165,41.38869632200463],[1.4190516682360015,41.37630527424999],[1.434185634018698,41.372432113381244],[1.4469295119792152,41.38095048338214],[1.4445380636222025,41.39334323465812],[1.4293993868449786,41.397215912595605],[1.416656870419165,41.38869632200463]]]}},{"type":"Feature","properties":{"id":"873944602ffffff","confidence":"low","m01":45,"m02":45,"m03":47,"m04":52,"m05":59,"m06":68,"m07":74,"m08":77,"m09":71,"m10":60,"m11":51,"m12":47},"geometry":{"type":"Polygon","coordinates":[[[2.109400627120065,41.38670034620735],[2.111708318154272,41.37425620554596],[2.1269044754339044,41.37027964798074],[2.139797622718035,41.37874765336895],[2.1374933639274074,41.39119345852434],[2.122292524623615,41.39516959399618],[2.109400627120065,41.38670034620735]]]}},{"type":"Feature","properties":{"id":"873944650ffffff","confidence":"low","m01":21,"m02":21,"m03":22,"m04":25,"m05":28,"m06":32,"m07":35,"m08":36,"m09":33,"m10":28,"m11":24,"m12":22},"geometry":{"type":"Polygon","coordinates":[[[2.267466847258161,41.392659376500774],[2.269754675105681,41.38020399350788],[2.2849656696396927,41.37620441886758],[2.2978935108650087,41.38466063558329],[2.2956091344151663,41.39711767368078],[2.2803934643602033,41.40111684016014],[2.267466847258161,41.392659376500774]]]}},{"type":"Feature","properties":{"id":"87394468affffff","confidence":"low","m01":31,"m02":31,"m03":32,"m04":36,"m05":41,"m06":47,"m07":51,"m08":53,"m09":49,"m10":41,"m11":35,"m12":32},"geometry":{"type":"Polygon","coordinates":[[[2.1090096676779755,41.232799202617045],[2.111313223761036,41.220339938972025],[2.126481792434373,41.2163487349292],[2.1393514691222077,41.22481721771751],[2.1370513327968075,41.237278151721355],[2.121878099045791,41.24126893277498],[2.1090096676779755,41.232799202617045]]]}},{"type":"Feature","properties":{"id":"8739446d8ffffff","confidence":"low","m01":41,"m02":41,"m03":43,"m04":48,"m05":54,"m06":62,"m07":68,"m08":70,"m09":65,"m10":54,"m11":47,"m12":42},"geometry":{"type":"Polygon","coordinates":[[[2.2667884507091234,41.23865796548405],[2.269072215903584,41.22618744582506],[2.2842555687912576,41.222173293215675],[2.297159814118401,41.23063006954124],[2.29487948773201,41.243102250158486],[2.2796914762336145,41.247115993692276],[2.2667884507091234,41.23865796548405]]]}},{"type":"Feature","properties":{"id":"873944735ffffff","confidence":"low","m01":17,"m02":17,"m03":18,"m04":20,"m05":22,"m06":25,"m07":28,"m08":29,"m09":27,"m10":22,"m11":19,"m12":18},"geometry":{"type":"Polygon","coordinates":[[[1.9341384926468268,41.55051492070285],[1.9364728386890804,41.53810029694115],[1.9516829768610988,41.53416561823265],[1.964563475921746,41.54264599994955],[1.96223255457089,41.555062291969605],[1.9470177084729499,41.55899653421121],[1.9341384926468268,41.55051492070285]]]}},{"type":"Feature","properties":{"id":"873944748ffffff","confidence":"low","m01":27,"m02":27,"m03":28,"m04":31,"m05":35,"m06":40,"m07":44,"m08":46,"m09":42,"m10":36,"m11":31,"m12":28},"geometry":{"type":"Polygon","coordinates":[[[2.2681477174747116,41.54649212698005],[2.270439622447132,41.534052034440855],[2.2856783594509817,41.53006706497166],[2.298629883018383,41.53852259539994],[2.2963414421025834,41.550964337165134],[2.2810980125752947,41.55494889948004],[2.2681477174747116,41.54649212698005]]]}},{"type":"Feature","properties":{"id":"873944776ffffff","confidence":"low","m01":37,"m02":37,"m03":38,"m04":43,"m05":48,"m06":55,"m07":61,"m08":63,"m09":58,"m10":49,"m11":42,"m12":38},"geometry":{"type":"Polygon","coordinates":[[[2.0922532369076494,41.55681674337152],[2.0945677496352437,41.54439083656001],[2.109793011058421,41.54043314598226],[2.1227084604351636,41.54890178495549],[2.120397391758607,41.56132935075132],[2.105167428662464,41.56528661878992],[2.0922532369076494,41.55681674337152]]]}},{"type":"Feature","properties":{"id":"873944785ffffff","confidence":"low","m01":47,"m02":47,"m03":49,"m04":54,"m05":62,"m06":70,"m07":77,"m08":80,"m09":74,"m10":62,"m11":53,"m12":48},"geometry":{"type":"Polygon","coordinates":[[[1.934065582853255,41.39691290617716],[1.936395697231298,41.38448300462917],[1.9515781956480847,41.38053357406688],[1.964435269535467,41.38901448269125],[1.9621085674036032,41.40144605840277],[1.9469213781485482,41.405395051521424],[1.934065582853255,41.39691290617716]]]}},{"type":"Feature","properties":{"id":"873944823ffffff","confidence":"low","m01":23,"m02":23,"m03":24,"m04":27,"m05":30,"m06":34,"m07":38,"m08":39,"m09":36,"m10":30,"m11":26,"m12":24},"geometry":{"type":"Polygon","coordinates":[[[1.7682891923669417,42.19330342704715],[1.7706626016537388,42.18096709628519],[1.7859749221042687,42.17711956487639],[1.7989186201483784,42.185608810337996],[1.796548668359859,42.19794679356814],[1.781231560007141,42.20179387906928],[1.7682891923669417,42.19330342704715]]]}},{"type":"Feature","properties":{"id":"873944871ffffff","confidence":"low","m01":33,"m02":33,"m03":34,"m04":38,"m05":43,"m06":49,"m07":54,"m08":56,"m09":52,"m10":43,"m11":37,"m12":34},"geometry":{"type":"Polygon","coordinates":[[[1.9273746342673987,42.20024976770803],[1.929728006678862,42.18790216511159],[1.9450559016385944,42.184031415036294],[1.9580352049493972,42.192508699684296],[1.9556853099349978,42.20485794562084],[1.9403526331941316,42.20872826377357],[1.9273746342673987,42.20024976770803]]]}},{"type":"Feature","properties":{"id":"8739448abffffff","confidence":"low","m01":43,"m02":42,"m03":44,"m04":50,"m05":56,"m06":64,"m07":71,"m08":73,"m09":67,"m10":57,"m11":49,"m12":44},"geometry":{"type":"Polygon","coordinates":[[[1.7685192659528468,42.040541344302916],[1.7708883011167813,42.02818911561035],[1.7861726096299404,42.02432665704789],[1.7990926523407536,42.03281687462994],[1.796727062050901,42.04517076180632],[1.7814379831599598,42.04903277311581],[1.7685192659528468,42.040541344302916]]]}},{"type":"Feature","properties":{"id":"8739448ceffffff","confidence":"low","m01":19,"m02":19,"m03":20,"m04":22,"m05":25,"m06":28,"m07":31,"m08":32,"m09":30,"m10":25,"m11":21,"m12":19},"geometry":{"type":"Polygon","coordinates":[[[1.944962444834833,42.03113830147073],[1.9473088158921972,42.01877177522463],[1.9626072402165828,42.01488193867969],[1.9755640541318107,42.02335906046397],[1.9732211485202957,42.03572723569826],[1.9579179625356786,42.039616640362716],[1.944962444834833,42.03113830147073]]]}},{"type":"Feature","properties":{"id":"873944912ffffff","confidence":"low","m01":29,"m02":29,"m03":30,"m04":33,"m05":38,"m06":43,"m07":47,"m08":49,"m09":45,"m10":38,"m11":33,"m12":30},"geometry":{"type":"Polygon","coordinates":[[[1.591762420096367,42.20228940085994],[1.5941584677186946,42.18996742547411],[1.6094563541329376,42.18614727058602],[1.622362988245332,42.194649552546046],[1.619970377313726,42.20697318976295],[1.6046676945531537,42.21079288338586],[1.591762420096367,42.20228940085994]]]}},{"type":"Feature","properties":{"id":"873944969ffffff","confidence":"low","m01":39,"m02":38,"m03":40,"m04":45,"m05":51,"m06":58,"m07":64,"m08":66,"m09":61,"m10":51,"m11":44,"m12":40},"geometry":{"type":"Polygon","coordinates":[[[1.927435945770424,42.35293395974242],[1.9297936348308582,42.34060241718796],[1.9451497019662942,42.33674655049539],[1.9581528783856847,42.34522265702971],[1.9557986795260012,42.357555836899536],[1.9404378130219715,42.361411273125746],[1.927435945770424,42.35293395974242]]]}},{"type":"Feature","properties":{"id":"873944a66ffffff","confidence":"low","m01":15,"m02":15,"m03":15,"m04":17,"m05":19,"m06":22,"m07":24,"m08":25,"m09":23,"m10":19,"m11":17,"m12":15},"geometry":{"type":"Polygon","coordinates":[[[2.4414557416951608,42.18716831841925],[2.4437429524181726,42.174781175724966],[2.4591133296508563,42.170831839982725],[2.47220125150979,42.179270034181144],[2.4699175788301253,42.19165879150235],[2.454542445241983,42.19560774021335],[2.4414557416951608,42.18716831841925]]]}},{"type":"Feature","properties":{"id":"873944aadffffff","confidence":"low","m01":25,"m02":24,"m03":26,"m04":29,"m05":32,"m06":37,"m07":41,"m08":42,"m09":39,"m10":33,"m11":28,"m12":25},"geometry":{"type":"Polygon","coordinates":[[[2.2809237320317917,42.02780500013665],[2.2832271585658694,42.015413056525595],[2.2985544775578854,42.01147246184423],[2.311583114960859,42.01992421345424],[2.3092831939051637,42.03231778709282],[2.2939511289638284,42.0362579793037],[2.2809237320317917,42.02780500013665]]]}},{"type":"Feature","properties":{"id":"873944aeeffffff","confidence":"low","m01":35,"m02":34,"m03":36,"m04":40,"m05":45,"m06":52,"m07":57,"m08":59,"m09":54,"m10":46,"m11":39,"m12":36},"geometry":{"type":"Polygon","coordinates":[[[2.440451107855746,42.033948807509546],[2.442734260742832,42.02154573546208],[2.4580764159757487,42.01758176306553],[2.4711401563277287,42.02602125136702],[2.4688605284192313,42.0384259440019],[2.4535136341794463,42.04238952796121],[2.440451107855746,42.033948807509546]]]}},{"type":"Feature","properties":{"id":"873944b0bffffff","confidence":"low","m01":45,"m02":44,"m03":46,"m04":52,"m05":58,"m06":67,"m07":73,"m08":76,"m09":70,"m10":59,"m11":51,"m12":46},"geometry":{"type":"Polygon","coordinates":[[[2.263967298198,42.197221436501124],[2.2662775732807914,42.18484842239183],[2.2816345291408715,42.18092676954498],[2.2946859749424764,42.189378533502655],[2.2923792175547932,42.20175317204381],[2.2770174956595826,42.20567442240682],[2.263967298198,42.197221436501124]]]}},{"type":"Feature","properties":{"id":"873944b14ffffff","confidence":"low","m01":21,"m02":20,"m03":21,"m04":24,"m05":27,"m06":31,"m07":34,"m08":35,"m09":32,"m10":27,"m11":23,"m12":21},"geometry":{"type":"Polygon","coordinates":[[[2.104387319739106,42.19073238315098],[2.106717839223076,42.17837053719583],[2.122059665615532,42.17447225534132],[2.1350757442305164,42.18293623616469],[2.1327487227273316,42.195299715876004],[2.1174021236140903,42.19919758121573],[2.104387319739106,42.19073238315098]]]}},{"type":"Feature","properties":{"id":"873944b9cffffff","confidence":"low","m01":31,"m02":30,"m03":32,"m04":35,"m05":40,"m06":46,"m07":50,"m08":52,"m09":48,"m10":40,"m11":35,"m12":31},"geometry":{"type":"Polygon","coordinates":[[[2.1040018035962906,42.03773986203576],[2.1063281059558343,42.02536210214134],[2.1216418127531944,42.02144903716269],[2.13463397146227,42.02991415017559],[2.1323111542375037,42.042293549814296],[2.1169926921601645,42.04620619690197],[2.1040018035962906,42.03773986203576]]]}},{"type":"Feature","properties":{"id":"873944c23ffffff","confidence":"low","m01":41,"m02":40,"m03":42,"m04":47,"m05":53,"m06":61,"m07":67,"m08":69,"m09":64,"m10":53,"m11":46,"m12":42},"geometry":{"type":"Polygon","coordinates":[[[1.424450772195983,41.86879832907074],[1.4268583135765862,41.856454786424855],[1.44207972630202,41.852627101398376],[1.4548983614650062,41.86114343802339],[1.4524942090066852,41.87348866489055],[1.4372680314461097,41.87731587110097],[1.424450772195983,41.86879832907074]]]}},{"type":"Feature","properties":{"id":"873944c71ffffff","confidence":"low","m01":16,"m02":16,"m03":17,"m04":19,"m05":22,"m06":25,"m07":27,"m08":28,"m09":26,"m10":22,"m11":19,"m12":17},"geometry":{"type":"Polygon","coordinates":[[[1.5824001532512797,41.875993701250245],[1.5847880280135322,41.8636387492202],[1.6000253399099014,41.859788146372836],[1.6128795353846241,41.86829296067486],[1.6104950693874516,41.880649587975626],[1.5952529981364074,41.88449972589671],[1.5824001532512797,41.875993701250245]]]}},{"type":"Feature","properties":{"id":"873944cabffffff","confidence":"low","m01":26,"m02":26,"m03":27,"m04":31,"m05":35,"m06":40,"m07":44,"m08":45,"m09":42,"m10":35,"m11":30,"m12":27},"geometry":{"type":"Polygon","coordinates":[[[1.4253053767736226,41.7159049107178],[1.4277084206487698,41.703545802659214],[1.4429021544320713,41.69970309495495],[1.4556975907677954,41.70821997543022],[1.4532979235657884,41.72058077370537],[1.438099442343486,41.72442300147643],[1.4253053767736226,41.7159049107178]]]}},{"type":"Feature","properties":{"id":"873944cb4ffffff","confidence":"low","m01":36,"m02":36,"m03":38,"m04":42,"m05":48,"m06":54,"m07":60,"m08":62,"m09":57,"m10":48,"m11":41,"m12":37},"geometry":{"type":"Polygon","coordinates":[[[1.2678967223180062,41.70860700835727],[1.2703192591966712,41.6962593729844],[1.2854969545689257,41.692439440634644],[1.2982568646794668,41.70096763761744],[1.2958376846689976,41.71331697207631],[1.280655236665615,41.71713641065066],[1.2678967223180062,41.70860700835727]]]}},{"type":"Feature","properties":{"id":"873944cceffffff","confidence":"low","m01":46,"m02":46,"m03":48,"m04":54,"m05":61,"m06":69,"m07":76,"m08":79,"m09":73,"m10":61,"m11":52,"m12":48},"geometry":{"type":"Polygon","coordinates":[[[1.6005607740070562,41.706761546601975],[1.6029415490075452,41.694388025582235],[1.6181497944205905,41.690518262458184],[1.6309820032676474,41.69902248518687],[1.628604625492327,41.71139768712299],[1.613391640637167,41.71526698560546],[1.6005607740070562,41.706761546601975]]]}},{"type":"Feature","properties":{"id":"873944d12ffffff","confidence":"low","m01":22,"m02":22,"m03":23,"m04":26,"m05":29,"m06":33,"m07":37,"m08":38,"m09":35,"m10":29,"m11":25,"m12":23},"geometry":{"type":"Polygon","coordinates":[[[1.2491196795372812,41.87752670729892],[1.2515494614542713,41.865197634949546],[1.2667560491907996,41.86139700226554],[1.2795376265497653,41.869925936206485],[1.2771112127755102,41.88225670194476],[1.2618998524788536,41.886056840539084],[1.2491196795372812,41.87752670729892]]]}},{"type":"Feature","properties":{"id":"873944d69ffffff","confidence":"low","m01":32,"m02":32,"m03":34,"m04":37,"m05":42,"m06":48,"m07":53,"m08":55,"m09":51,"m10":43,"m11":37,"m12":33},"geometry":{"type":"Polygon","coordinates":[[[1.5818304798655443,42.02881612429934],[1.5842227973729015,42.016476901308444],[1.599487948385092,42.0126412795419],[1.61236555768785,42.021145344658805],[1.6099766613709607,42.03348623691358],[1.5947067335411726,42.037321394982385],[1.5818304798655443,42.02881612429934]]]}},{"type":"Feature","properties":{"id":"873945422ffffff","confidence":"low","m01":42,"m02":42,"m03":44,"m04":49,"m05":55,"m06":63,"m07":70,"m08":72,"m09":66,"m10":56,"m11":48,"m12":43},"geometry":{"type":"Polygon","coordinates":[[[2.9518066341455484,41.7104806006432],[2.9540153567396086,41.69800705714225],[2.969341166355621,41.693935324519785],[2.9824629292956697,41.7023374816341],[2.9802577643840595,41.71481262775933],[2.9649272778734455,41.71888401436651],[2.9518066341455484,41.7104806006432]]]}},{"type":"Feature","properties":{"id":"8739454aaffffff","confidence":"low","m01":18,"m02":18,"m03":19,"m04":21,"m05":24,"m06":27,"m07":30,"m08":31,"m09":29,"m10":24,"m11":21,"m12":19},"geometry":{"type":"Polygon","coordinates":[[[2.9498722670494435,41.556385035044926],[2.9520772186784825,41.54389600210818],[2.9673749766569393,41.53980993898802],[2.9804724420221835,41.5482132562073],[2.97827103490942,41.56070389761921],[2.962968616943903,41.56478961355541],[2.9498722670494435,41.556385035044926]]]}},{"type":"Feature","properties":{"id":"8739455a1ffffff","confidence":"low","m01":28,"m02":28,"m03":29,"m04":33,"m05":37,"m06":42,"m07":46,"m08":48,"m09":44,"m10":37,"m11":32,"m12":29},"geometry":{"type":"Polygon","coordinates":[[[2.79215674209589,41.70523977188649],[2.794385889906132,41.69277722077651],[2.80969765858609,41.68872894238007],[2.8227849630831496,41.697143575379606],[2.8205593539763045,41.70960773887757],[2.8052429006885538,41.713655657205074],[2.79215674209589,41.70523977188649]]]}},{"type":"Feature","properties":{"id":"873945934ffffff","confidence":"low","m01":38,"m02":38,"m03":40,"m04":44,"m05":50,"m06":57,"m07":63,"m08":65,"m09":60,"m10":50,"m11":43,"m12":39},"geometry":{"type":"Polygon","coordinates":[[[2.9548987064380965,42.51548667117389],[2.957128345363841,42.50309731699632],[2.9726023396297476,42.49910221347769],[2.98585146141416,42.50749680337783],[2.983625449569961,42.519887729574044],[2.9681466878548126,42.523882494081306],[2.9548987064380965,42.51548667117389]]]}},{"type":"Feature","properties":{"id":"873945984ffffff","confidence":"low","m01":48,"m02":48,"m03":50,"m04":56,"m05":63,"m06":72,"m07":79,"m08":82,"m09":76,"m10":64,"m11":54,"m12":50},"geometry":{"type":"Polygon","coordinates":[[[2.9529399664584774,42.362327673739024],[2.955165762835765,42.34992204371442],[2.970611160946494,42.34591247699362],[2.983835511729209,42.354308881185986],[2.9816133288805853,42.36671608919115],[2.9661631807210727,42.370725315251434],[2.9529399664584774,42.362327673739024]]]}},{"type":"Feature","properties":{"id":"873945c15ffffff","confidence":"low","m01":24,"m02":24,"m03":25,"m04":28,"m05":32,"m06":36,"m07":40,"m08":41,"m09":38,"m10":32,"m11":27,"m12":25},"geometry":{"type":"Polygon","coordinates":[[[2.7778480616906305,42.02915978505414],[2.7800876543559663,42.01673162508027],[2.795457293785108,42.01271645204945],[2.8085920611089454,42.02112979811513],[2.806356032826834,42.03355955910256],[2.7909816718455063,42.037574373231216],[2.7778480616906305,42.02915978505414]]]}},{"type":"Feature","properties":{"id":"873945c50ffffff","confidence":"low","m01":34,"m02":34,"m03":35,"m04":39,"m05":45,"m06":51,"m07":56,"m08":58,"m09":54,"m10":45,"m11":39,"m12":35},"geometry":{"type":"Polygon","coordinates":[[[2.966650775425454,42.0389900277831],[2.9688662097869236,42.026549308313214],[2.9842531433236346,42.02250665825227],[2.9974293542536934,42.030905070160514],[2.995217507185364,42.04334737904533],[2.9798258609061663,42.04738968683156],[2.966650775425454,42.0389900277831]]]}},{"type":"Feature","properties":{"id":"873945c9dffffff","confidence":"low","m01":44,"m02":44,"m03":46,"m04":51,"m05":58,"m06":66,"m07":73,"m08":75,"m09":69,"m10":58,"m11":50,"m12":45},"geometry":{"type":"Polygon","coordinates":[[[2.776226857309167,41.87553936945941],[2.778462567134372,41.863095415113634],[2.793803991466416,41.85906577889336],[2.806914409385032,41.86748045748253],[2.8046822507366556,41.87992601875318],[2.7893361220060657,41.88395529472846],[2.776226857309167,41.87553936945941]]]}},{"type":"Feature","properties":{"id":"873945cdaffffff","confidence":"low","m01":20,"m02":20,"m03":21,"m04":23,"m05":26,"m06":30,"m07":33,"m08":34,"m09":31,"m10":26,"m11":23,"m12":21},"geometry":{"type":"Polygon","coordinates":[[[2.953748101119612,41.86440243154297],[2.955960607528669,41.85194453018077],[2.971314571812334,41.84788715436179],[2.9844607225994113,41.856288024882],[2.982251787112432,41.86874752299488],[2.966893128934463,41.87280455405926],[2.953748101119612,41.86440243154297]]]}},{"type":"Feature","properties":{"id":"873945d34ffffff","confidence":"low","m01":30,"m02":30,"m03":31,"m04":35,"m05":39,"m06":45,"m07":49,"m08":51,"m09":47,"m10":39,"m11":34,"m12":31},"geometry":{"type":"Polygon","coordinates":[[[2.6015213813827156,42.19319588250234],[2.6037881428519576,42.180797677754924],[2.6191731973318815,42.17682482223527],[2.6322962384416586,42.18525054464109],[2.630033034534707,42.19765035449513],[2.6146432309532024,42.201622837055346],[2.6015213813827156,42.19319588250234]]]}},{"type":"Feature","properties":{"id":"873945d48ffffff","confidence":"low","m01":40,"m02":40,"m03":41,"m04":46,"m05":52,"m06":60,"m07":66,"m08":68,"m09":63,"m10":53,"m11":45,"m12":41},"geometry":{"type":"Polygon","coordinates":[[[2.9686273197044226,42.19254112202624],[2.9708465603830496,42.18011636732362],[2.9862618735431545,42.17608812297446],[2.9994626749694997,42.18448497437132],[2.997247034989176,42.19691131257023],[2.9818269918911886,42.20093921610243],[2.9686273197044226,42.19254112202624]]]}},{"type":"Feature","properties":{"id":"873945d76ffffff","confidence":"low","m01":16,"m02":16,"m03":16,"m04":18,"m05":21,"m06":24,"m07":26,"m08":27,"m09":25,"m10":21,"m11":18,"m12":16},"geometry":{"type":"Polygon","coordinates":[[[2.7903906460616663,42.20342672171687],[2.7926332812060677,42.19101591131156],[2.8080359784811506,42.18701558351447],[2.8212007802067935,42.195426422674686],[2.818961725793469,42.20783882672362],[2.80355428792534,42.21183879819148],[2.7903906460616663,42.20342672171687]]]}},{"type":"Feature","properties":{"id":"873945d80ffffff","confidence":"low","m01":26,"m02":26,"m03":27,"m04":30,"m05":34,"m06":39,"m07":43,"m08":44,"m09":41,"m10":34,"m11":29,"m12":27},"geometry":{"type":"Polygon","coordinates":[[[2.6178415884767317,42.023477872995336],[2.6201016570224716,42.01106073382514],[2.6354569135059083,42.007069084201625],[2.6485568295077497,42.015494946939505],[2.6463003060444454,42.02791369675938],[2.6309403205008763,42.03190497340868],[2.6178415884767317,42.023477872995336]]]}},{"type":"Feature","properties":{"id":"873946000ffffff","confidence":"low","m01":36,"m02":36,"m03":37,"m04":42,"m05":47,"m06":54,"m07":59,"m08":61,"m09":56,"m10":47,"m11":41,"m12":37},"geometry":{"type":"Polygon","coordinates":[[[1.4374956860454355,40.75765944945191],[1.4398701714964448,40.745206058955155],[1.454894008944286,40.74126913761852],[1.4675480006680308,40.74978609118028],[1.4651768177309452,40.762241208358326],[1.4501483395787638,40.76617764547007],[1.4374956860454355,40.75765944945191]]]}},{"type":"Feature","properties":{"id":"873946055ffffff","confidence":"low","m01":46,"m02":45,"m03":48,"m04":53,"m05":60,"m06":69,"m07":75,"m08":78,"m09":72,"m10":60,"m11":52,"m12":47},"geometry":{"type":"Polygon","coordinates":[[[1.5934001725381222,40.764095067838255],[1.595755494345583,40.751630167532596],[1.610794803564413,40.7476708043283],[1.6234834254182302,40.756176812087155],[1.6211314251945452,40.768643430040306],[1.6060874805586436,40.772602322767334],[1.5934001725381222,40.764095067838255]]]}},{"type":"Feature","properties":{"id":"873946126ffffff","confidence":"low","m01":22,"m02":22,"m03":23,"m04":25,"m05":28,"m06":33,"m07":36,"m08":37,"m09":34,"m10":29,"m11":25,"m12":22},"geometry":{"type":"Polygon","coordinates":[[[1.263299280313079,40.92117502265072],[1.2656999072509303,40.90875070830667],[1.280736333708382,40.90485522260276],[1.2933767972476755,40.91338455029726],[1.2909794645944694,40.92581059475649],[1.2759383731310379,40.929705581580926],[1.263299280313079,40.92117502265072]]]}},{"type":"Feature","properties":{"id":"87394614dffffff","confidence":"low","m01":32,"m02":31,"m03":33,"m04":37,"m05":42,"m06":47,"m07":52,"m08":54,"m09":50,"m10":42,"m11":36,"m12":33},"geometry":{"type":"Polygon","coordinates":[[[1.5928577722190689,40.91813675362333],[1.595217416457849,40.90568647989432],[1.610283845387362,40.9017419027871],[1.6229952812999269,40.91024806950355],[1.6206389705963333,40.92270005505836],[1.6055678894650274,40.92664416225296],[1.5928577722190689,40.91813675362333]]]}},{"type":"Feature","properties":{"id":"873946170ffffff","confidence":"low","m01":42,"m02":41,"m03":43,"m04":48,"m05":55,"m06":62,"m07":69,"m08":71,"m09":66,"m10":55,"m11":47,"m12":43},"geometry":{"type":"Polygon","coordinates":[[[1.4366726485627443,40.91159654961345],[1.4390515253278646,40.89915777245774],[1.454102425706857,40.89523570377627],[1.4667791058547028,40.90375289610891],[1.4644035434510752,40.91619339411377],[1.44934798555537,40.920114979115404],[1.4366726485627443,40.91159654961345]]]}},{"type":"Feature","properties":{"id":"873946185ffffff","confidence":"low","m01":18,"m02":17,"m03":18,"m04":20,"m05":23,"m06":26,"m07":29,"m08":30,"m09":28,"m10":23,"m11":20,"m12":18},"geometry":{"type":"Polygon","coordinates":[[[1.2542184658557387,40.74640298804526],[1.2566152957236982,40.733962893555535],[1.2716200665209303,40.73005197827977],[1.284232652709988,40.73858165805648],[1.281839102549146,40.75102348987773],[1.2668296855117098,40.75493390476336],[1.2542184658557387,40.74640298804526]]]}},{"type":"Feature","properties":{"id":"873946220ffffff","confidence":"low","m01":28,"m02":27,"m03":29,"m04":32,"m05":36,"m06":41,"m07":45,"m08":47,"m09":43,"m10":36,"m11":31,"m12":28},"geometry":{"type":"Polygon","coordinates":[[[1.9233323195770844,40.75986905158804],[1.9256463989804464,40.747378397148225],[1.940714714078524,40.74336979380685],[1.9534735703887236,40.75185228651899],[1.9511628512464065,40.76434463987258],[1.9360899145649455,40.76835280178765],[1.9233323195770844,40.75986905158804]]]}},{"type":"Feature","properties":{"id":"873946271ffffff","confidence":"low","m01":38,"m02":37,"m03":39,"m04":44,"m05":49,"m06":56,"m07":62,"m08":64,"m09":59,"m10":50,"m11":43,"m12":39},"geometry":{"type":"Polygon","coordinates":[[[2.0973433286474013,40.74913037926244],[2.0996353249766915,40.73662549228062],[2.114717112625937,40.73259009267158],[2.1275115159671802,40.74106000635819],[2.125222899459639,40.753566582529196],[2.1101364988252587,40.75760155601544],[2.0973433286474013,40.74913037926244]]]}},{"type":"Feature","properties":{"id":"873946312ffffff","confidence":"low","m01":48,"m02":47,"m03":49,"m04":55,"m05":62,"m06":71,"m07":78,"m08":81,"m09":75,"m10":63,"m11":54,"m12":49},"geometry":{"type":"Polygon","coordinates":[[[1.7669414880119192,40.75387110678404],[1.769274930656648,40.74139185866417],[1.784328189900306,40.737405842138756],[1.7970526329227248,40.7458995291462],[1.794722531631418,40.7583804854109],[1.7796646449933893,40.762366046707214],[1.7669414880119192,40.75387110678404]]]}},{"type":"Feature","properties":{"id":"87394681effffff","confidence":"low","m01":24,"m02":23,"m03":24,"m04":27,"m05":31,"m06":35,"m07":39,"m08":40,"m09":37,"m10":31,"m11":27,"m12":24},"geometry":{"type":"Polygon","coordinates":[[[1.262160938904151,41.07481601458181],[1.264566051587254,41.06240647123726],[1.2796295848351713,41.058525943222776],[1.2922926863572093,41.06705545698386],[1.2898908797604058,41.07946672456849],[1.274822664563561,41.083346754328595],[1.262160938904151,41.07481601458181]]]}},{"type":"Feature","properties":{"id":"873946864ffffff","confidence":"low","m01":33,"m02":33,"m03":35,"m04":39,"m05":44,"m06":50,"m07":55,"m08":57,"m09":53,"m10":44,"m11":38,"m12":34},"geometry":{"type":"Polygon","coordinates":[[[1.4175206871457355,41.2352790809792],[1.4199110350114867,41.2228729410783],[1.435017638744381,41.21898483332215],[1.44773858750936,41.2275033494088],[1.4453515770675098,41.23991119874939],[1.4302402794423899,41.24379882274559],[1.4175206871457355,41.2352790809792]]]}},{"type":"Feature","properties":{"id":"8739468ecffffff","confidence":"low","m01":43,"m02":43,"m03":45,"m04":50,"m05":57,"m06":65,"m07":72,"m08":74,"m09":68,"m10":57,"m11":49,"m12":45},"geometry":{"type":"Polygon","coordinates":[[[1.4183813833268477,41.081696436816884],[1.4207672977359944,41.06927535792271],[1.435846638174561,41.06537233040908],[1.4485447400978615,41.07389086646658],[1.4461621511414313,41.08631366069229],[1.4310781338200111,41.09021620370911],[1.4183813833268477,41.081696436816884]]]}},{"type":"Feature","properties":{"id":"873946933ffffff","confidence":"low","m01":19,"m02":19,"m03":20,"m04":22,"m05":25,"m06":29,"m07":32,"m08":33,"m09":30,"m10":26,"m11":22,"m12":20},"geometry":{"type":"Polygon","coordinates":[[[1.0872616145250424,41.237325976547154],[1.089693029052989,41.22494588223982],[1.1047689335622848,41.22110699804839],[1.1174181287907645,41.22964872106757],[1.1149900118090956,41.242030542831365],[1.099909401052117,41.24586891429432],[1.0872616145250424,41.237325976547154]]]}},{"type":"Feature","properties":{"id":"873946956ffffff","confidence":"low","m01":29,"m02":29,"m03":30,"m04":34,"m05":38,"m06":44,"m07":48,"m08":50,"m09":46,"m10":39,"m11":33,"m12":30},"geometry":{"type":"Polygon","coordinates":[[[1.2610184812064738,41.228293857776436],[1.263428096408477,41.21589923944795],[1.278518834344743,41.21203369687968],[1.2912046550661918,41.22056327035574],[1.2887983578156674,41.232959607021705],[1.2737029208951136,41.23682465205256],[1.2610184812064738,41.228293857776436]]]}},{"type":"Feature","properties":{"id":"873946983ffffff","confidence":"low","m01":39,"m02":39,"m03":41,"m04":46,"m05":52,"m06":59,"m07":65,"m08":67,"m09":62,"m10":52,"m11":45,"m12":40},"geometry":{"type":"Polygon","coordinates":[[[1.0887166368722792,41.08398369672242],[1.091143470877481,41.071588676038196],[1.106192226158763,41.067734731032694],[1.1188188356148736,41.07627632031757],[1.1163952874021084,41.088673074375656],[1.1013418429456614,41.09252650594797],[1.0887166368722792,41.08398369672242]]]}},{"type":"Feature","properties":{"id":"873946a02ffffff","confidence":"low","m01":15,"m02":15,"m03":16,"m04":18,"m05":20,"m06":23,"m07":25,"m08":26,"m09":24,"m10":20,"m11":17,"m12":16},"geometry":{"type":"Polygon","coordinates":[[[1.7664817817084864,41.06205904399669],[1.7688237269192562,41.04960919974226],[1.7839314257900052,41.04565262876942],[1.7967018394374015,41.0541463562235],[1.7943632597633823,41.066597896980966],[1.7792508999237429,41.07055401396879],[1.7664817817084864,41.06205904399669]]]}},{"type":"Feature","properties":{"id":"873946a50ffffff","confidence":"low","m01":25,"m02":25,"m03":26,"m04":29,"m05":33,"m06":38,"m07":42,"m08":43,"m09":40,"m10":33,"m11":29,"m12":26},"geometry":{"type":"Polygon","coordinates":[[[1.9234384461869647,41.068262583641584],[1.9257608878381964,41.055801359363684],[1.940883751918865,41.051822066263554],[1.9536888284646414,41.06030443777608],[1.9513697714639084,41.07276734934719],[1.936242252288474,41.07674620230354],[1.9234384461869647,41.068262583641584]]]}},{"type":"Feature","properties":{"id":"873946a8affffff","confidence":"low","m01":35,"m02":35,"m03":37,"m04":41,"m05":46,"m06":53,"m07":58,"m08":60,"m09":55,"m10":46,"m11":40,"m12":36},"geometry":{"type":"Polygon","coordinates":[[[1.766712049860314,40.90804594947713],[1.7690497360571988,40.89558132509257],[1.7841301659836695,40.891610016804435],[1.7968775528732002,40.90010378773962],[1.7945432200886955,40.91257011446207],[1.7794581460261092,40.91654096809713],[1.766712049860314,40.90804594947713]]]}},{"type":"Feature","properties":{"id":"873946ad8ffffff","confidence":"low","m01":45,"m02":45,"m03":47,"m04":52,"m05":59,"m06":68,"m07":74,"m08":77,"m09":71,"m10":60,"m11":51,"m12":47},"geometry":{"type":"Polygon","coordinates":[[[1.923385287001268,40.914146844860774],[1.9257035399876885,40.90167082715391],[1.9407990802979282,40.897676864331046],[1.9535810049422957,40.90615936023532],[1.951266124378565,40.91863707105957],[1.9361659457746578,40.922630593051345],[1.923385287001268,40.914146844860774]]]}},{"type":"Feature","properties":{"id":"873946b35ffffff","confidence":"low","m01":21,"m02":21,"m03":22,"m04":25,"m05":28,"m06":32,"m07":35,"m08":36,"m09":33,"m10":28,"m11":24,"m12":22},"geometry":{"type":"Polygon","coordinates":[[[1.591767078511198,41.22573328363868],[1.5941354153675058,41.21331272970156],[1.609256378195245,41.20939781060049],[1.6220136892218293,41.21790391412943],[1.619648709997866,41.23032616816564],[1.6045230611243095,41.2342406187594],[1.591767078511198,41.22573328363868]]]}},{"type":"Feature","properties":{"id":"873946b4dffffff","confidence":"low","m01":31,"m02":31,"m03":32,"m04":36,"m05":41,"m06":47,"m07":51,"m08":53,"m09":49,"m10":41,"m11":35,"m12":32},"geometry":{"type":"Polygon","coordinates":[[[1.9339929375762215,41.24314268487968],[1.9363188356043723,41.23069765858884],[1.951473794537199,41.22673350302657],[1.9643075283010623,41.23521481227687],[1.9619850301415698,41.2476615186112],[1.946825397365272,41.251625235844976],[1.9339929375762215,41.24314268487968]]]}},{"type":"Feature","properties":{"id":"873946b70ffffff","confidence":"low","m01":41,"m02":41,"m03":43,"m04":48,"m05":54,"m06":62,"m07":68,"m08":70,"m09":65,"m10":54,"m11":47,"m12":42},"geometry":{"type":"Polygon","coordinates":[[[1.7766974142232237,41.236836882036116],[1.779042902624118,41.22440321700454],[1.7941826471279716,41.22046186489696],[1.8069815820144741,41.22895463020402],[1.8046394742554082,41.24138998448277],[1.789495049980689,41.245330884397085],[1.7766974142232237,41.236836882036116]]]}},{"type":"Feature","properties":{"id":"873946b85ffffff","confidence":"low","m01":17,"m02":17,"m03":18,"m04":20,"m05":22,"m06":25,"m07":28,"m08":29,"m09":27,"m10":22,"m11":19,"m12":18},"geometry":{"type":"Polygon","coordinates":[[[1.592313411094023,41.07201681294617],[1.594677393653182,41.05958132172538],[1.6097710402750123,41.05565155957],[1.6225053724302039,41.06415775807515],[1.6201447354222511,41.07659495527198],[1.6050464197226326,41.08052424817145],[1.592313411094023,41.07201681294617]]]}},{"type":"Feature","properties":{"id":"873946c1effffff","confidence":"low","m01":27,"m02":27,"m03":28,"m04":31,"m05":35,"m06":40,"m07":44,"m08":46,"m09":42,"m10":36,"m11":31,"m12":28},"geometry":{"type":"Polygon","coordinates":[[[0.9264307133576136,40.749113394908925],[0.9287835378490537,40.736330628674885],[0.9437575326642504,40.73246833406408],[0.9562989624828275,40.74102047430901],[0.9538649809735354,40.75343613502456],[0.9388863283109298,40.75729790044341],[0.932615821499261,40.75302132056226],[0.9264307133576136,40.749113394908925]]]}},{"type":"Feature","properties":{"id":"873946c64ffffff","confidence":"low","m01":37,"m02":37,"m03":38,"m04":43,"m05":48,"m06":55,"m07":61,"m08":63,"m09":58,"m10":49,"m11":42,"m12":38},"geometry":{"type":"Polygon","coordinates":[[[1.0799913153772864,40.90952538126641],[1.0824142431260004,40.897114404947885],[1.0974312765200236,40.893244911631115],[1.1100300514232924,40.90178690983711],[1.1076103949307303,40.914199626786996],[1.0925886912896272,40.918068605070296],[1.0799913153772864,40.90952538126641]]]}},{"type":"Feature","properties":{"id":"873946cecffffff","confidence":"low","m01":47,"m02":47,"m03":49,"m04":54,"m05":62,"m06":70,"m07":77,"m08":80,"m09":74,"m10":62,"m11":53,"m12":48},"geometry":{"type":"Polygon","coordinates":[[[1.0814537433689992,40.75584479721784],[1.0838721226588424,40.743419224397286],[1.0988622183525392,40.73953472558169],[1.1114385871425883,40.748076315296665],[1.1090234674952968,40.76050363460696],[1.0940287184316226,40.764387617881496],[1.0814537433689992,40.75584479721784]]]}},{"type":"Feature","properties":{"id":"873946d09ffffff","confidence":"low","m01":23,"m02":23,"m03":24,"m04":27,"m05":30,"m06":34,"m07":38,"m08":39,"m09":36,"m10":30,"m11":26,"m12":24},"geometry":{"type":"Polygon","coordinates":[[[0.9205628540422213,40.93089372504243],[0.9081616856961472,40.92308997828974],[0.9105240116952433,40.91030874361184],[0.9252820369979056,40.905332576616054],[0.9376797432498027,40.91313523922159],[0.9353228861327041,40.92591515265793],[0.9205628540422213,40.93089372504243]]]}},{"type":"Feature","properties":{"id":"873946d14ffffff","confidence":"low","m01":33,"m02":33,"m03":34,"m04":38,"m05":43,"m06":49,"m07":54,"m08":56,"m09":52,"m10":43,"m11":37,"m12":34},"geometry":{"type":"Polygon","coordinates":[[[0.7574781831858363,40.91381686544407],[0.7450766352320207,40.90598753800177],[0.7474717985200316,40.89319843027818],[0.7622630339105224,40.88823995536681],[0.7746611415780044,40.89606818590221],[0.7722714539931063,40.90885598794097],[0.7574781831858363,40.91381686544407]]]}},{"type":"Feature","properties":{"id":"873946d9cffffff","confidence":"low","m01":43,"m02":42,"m03":44,"m04":50,"m05":56,"m06":64,"m07":71,"m08":73,"m09":67,"m10":57,"m11":49,"m12":44},"geometry":{"type":"Polygon","coordinates":[[[0.7589974247821433,40.75746413571774],[0.7466231085254881,40.749622312191526],[0.7490127034896635,40.736831096352304],[0.763771162937347,40.731883009591535],[0.7761420537935574,40.739723731205906],[0.773757910455146,40.752513641179114],[0.7589974247821433,40.75746413571774]]]}},{"type":"Feature","properties":{"id":"873962025ffffff","confidence":"low","m01":19,"m02":19,"m03":20,"m04":22,"m05":25,"m06":28,"m07":31,"m08":32,"m09":30,"m10":25,"m11":21,"m12":19},"geometry":{"type":"Polygon","coordinates":[[[1.0847230116192055,42.681126513046905],[1.0720112523186915,42.67349782023737],[1.0743990267587629,42.66076115308562],[1.0894928210456374,42.655654508522105],[1.1022009195081959,42.66328218299688],[1.099818884335671,42.676017520045896],[1.0847230116192055,42.681126513046905]]]}},{"type":"Feature","properties":{"id":"873962060ffffff","confidence":"low","m01":29,"m02":29,"m03":30,"m04":33,"m05":38,"m06":43,"m07":47,"m08":49,"m09":45,"m10":38,"m11":33,"m12":30},"geometry":{"type":"Polygon","coordinates":[[[1.268886069789076,42.67825169886068],[1.2561788359664692,42.670650404635715],[1.2585279388045287,42.65792206521854],[1.2735785479613677,42.652796367212424],[1.2862820977140585,42.66039665715206],[1.2839387221790572,42.67312364906252],[1.268886069789076,42.67825169886068]]]}},{"type":"Feature","properties":{"id":"8739620adffffff","confidence":"low","m01":39,"m02":38,"m03":40,"m04":45,"m05":51,"m06":58,"m07":64,"m08":66,"m09":61,"m10":51,"m11":44,"m12":40},"geometry":{"type":"Polygon","coordinates":[[[1.085540806158599,42.525741284065944],[1.072857659523272,42.51809878174693],[1.075239887057994,42.50535792538992],[1.0902995476139774,42.50026090227072],[1.1029790497567729,42.507902381899314],[1.100602535651153,42.520641907015005],[1.085540806158599,42.525741284065944]]]}},{"type":"Feature","properties":{"id":"8739620e8ffffff","confidence":"low","m01":15,"m02":15,"m03":15,"m04":17,"m05":19,"m06":22,"m07":24,"m08":25,"m09":23,"m10":19,"m11":17,"m12":15},"geometry":{"type":"Polygon","coordinates":[[[1.2692883814007356,42.52301301921894],[1.2566097408187442,42.51539784306053],[1.2589534708466201,42.50266534496609],[1.2739701397129222,42.4975493713173],[1.286645112728118,42.50516353878668],[1.284307084244354,42.51789468827477],[1.2692883814007356,42.52301301921894]]]}},{"type":"Feature","properties":{"id":"873962110ffffff","confidence":"low","m01":25,"m02":24,"m03":26,"m04":29,"m05":32,"m06":37,"m07":41,"m08":42,"m09":39,"m10":33,"m11":28,"m12":25},"geometry":{"type":"Polygon","coordinates":[[[0.9280477547925823,42.68627291852048],[0.9153318242865777,42.678621174747896],[0.9177526193364,42.66587761207826],[0.9328835950530349,42.660787108059964],[0.9455958844447654,42.668437821674516],[0.9431808390604804,42.68118006913851],[0.9280477547925823,42.68627291852048]]]}},{"type":"Feature","properties":{"id":"873962198ffffff","confidence":"low","m01":35,"m02":34,"m03":36,"m04":40,"m05":45,"m06":52,"m07":57,"m08":59,"m09":54,"m10":46,"m11":39,"m12":36},"geometry":{"type":"Polygon","coordinates":[[[0.9292197038132949,42.5307655930544],[0.9165324034621867,42.52310009994901],[0.9189475027632025,42.5103523183971],[0.9340441784842038,42.50527134600432],[0.9467278539319274,42.51293580463795],[0.9443184783894394,42.52568226981072],[0.9292197038132949,42.5307655930544]]]}},{"type":"Feature","properties":{"id":"873962202ffffff","confidence":"low","m01":45,"m02":44,"m03":46,"m04":52,"m05":58,"m06":67,"m07":73,"m08":76,"m09":70,"m10":59,"m11":51,"m12":46},"geometry":{"type":"Polygon","coordinates":[[[1.5906508772340826,42.50701488743601],[1.593055888241966,42.49472514276249],[1.6084100000916854,42.49093506124448],[1.621363931674665,42.4994351829256],[1.6189623825838588,42.511726577305154],[1.6036034389557632,42.51551620049821],[1.5906508772340826,42.50701488743601]]]}},{"type":"Feature","properties":{"id":"873962250ffffff","confidence":"low","m01":21,"m02":20,"m03":21,"m04":24,"m05":27,"m06":31,"m07":34,"m08":35,"m09":32,"m10":27,"m11":23,"m12":21},"geometry":{"type":"Polygon","coordinates":[[[1.7500715327430578,42.514406696768745],[1.7524564667621885,42.50210565941088],[1.7678265051694715,42.498292305503355],[1.78081643441144,42.50678043348294],[1.7784349825288361,42.519083111546685],[1.763060118233579,42.52289602112912],[1.7500715327430578,42.514406696768745]]]}},{"type":"Feature","properties":{"id":"87396228affffff","confidence":"low","m01":31,"m02":30,"m03":32,"m04":35,"m05":40,"m06":46,"m07":50,"m08":52,"m09":48,"m10":40,"m11":35,"m12":31},"geometry":{"type":"Polygon","coordinates":[[[1.5912076687011232,42.35474188921082],[1.5936081896517185,42.34243595679872],[1.6089341372174804,42.33863082767526],[1.621864376814542,42.34713209100339],[1.6194673051332404,42.35943967919426],[1.6041365435540376,42.36324434847714],[1.5912076687011232,42.35474188921082]]]}},{"type":"Feature","properties":{"id":"8739622dbffffff","confidence":"low","m01":41,"m02":40,"m03":42,"m04":47,"m05":53,"m06":61,"m07":67,"m08":69,"m09":64,"m10":53,"m11":46,"m12":42},"geometry":{"type":"Polygon","coordinates":[[[1.7680582736608466,42.34588769751771],[1.7704360732520166,42.33356741111384],[1.7857765085043715,42.32973482965889],[1.7987439486614554,42.33822297928141],[1.796369619262307,42.350544912116746],[1.7810243784866022,42.354377049100634],[1.7680582736608466,42.34588769751771]]]}},{"type":"Feature","properties":{"id":"873962335ffffff","confidence":"low","m01":16,"m02":16,"m03":17,"m04":19,"m05":22,"m06":25,"m07":27,"m08":28,"m09":26,"m10":22,"m11":19,"m12":17},"geometry":{"type":"Polygon","coordinates":[[[1.4128357012323924,42.6674100739189],[1.41526799621893,42.655151067598844],[1.430635511392667,42.65140357660653],[1.4435755884299681,42.65991556421809],[1.4411467468005503,42.6721762233507],[1.4257743737297062,42.67592324225792],[1.4128357012323924,42.6674100739189]]]}},{"type":"Feature","properties":{"id":"873962349ffffff","confidence":"low","m01":26,"m02":26,"m03":27,"m04":31,"m05":35,"m06":40,"m07":44,"m08":45,"m09":42,"m10":35,"m11":30,"m12":27},"geometry":{"type":"Polygon","coordinates":[[[1.7782218515054402,42.67128852137434],[1.7806077235639242,42.65900219702171],[1.7960095403468341,42.65520002222459],[1.8090303270670156,42.66368461215304],[1.8066479538674862,42.675972569388655],[1.791241294049415,42.67977430401944],[1.7782218515054402,42.67128852137434]]]}},{"type":"Feature","properties":{"id":"873962370ffffff","confidence":"low","m01":36,"m02":36,"m03":38,"m04":42,"m05":48,"m06":54,"m07":60,"m08":62,"m09":57,"m10":48,"m11":41,"m12":37},"geometry":{"type":"Polygon","coordinates":[[[1.600659590652678,42.679878587687476],[1.6030683699604105,42.66760660945423],[1.61845559943798,42.66383205335935],[1.6314389002087188,42.67232993126397],[1.6290335985953364,42.68460355170091],[1.61364151747331,42.6883776522325],[1.600659590652678,42.679878587687476]]]}},{"type":"Feature","properties":{"id":"873962385ffffff","confidence":"low","m01":46,"m02":46,"m03":48,"m04":54,"m05":61,"m06":69,"m07":76,"m08":79,"m09":73,"m10":61,"m11":52,"m12":48},"geometry":{"type":"Polygon","coordinates":[[[1.4137198517125524,42.51545073527966],[1.4161475564949462,42.503175400144194],[1.431486859409771,42.49941276576805],[1.4444032964904534,42.507925940403496],[1.4419790324654986,42.52020293445955],[1.4266348895612129,42.52396509515656],[1.4137198517125524,42.51545073527966]]]}},{"type":"Feature","properties":{"id":"873962421ffffff","confidence":"low","m01":22,"m02":22,"m03":23,"m04":26,"m05":29,"m06":33,"m07":37,"m08":38,"m09":35,"m10":29,"m11":25,"m12":23},"geometry":{"type":"Polygon","coordinates":[[[0.7639234017930866,42.3594224370929],[0.7512641967148073,42.351716981784655],[0.7537078406899286,42.33895731748649],[0.7688049842903222,42.33390440985963],[0.7814606037497973,42.341608813230614],[0.7790226650695085,42.35436717583899],[0.7639234017930866,42.3594224370929]]]}},{"type":"Feature","properties":{"id":"873962462ffffff","confidence":"low","m01":32,"m02":32,"m03":34,"m04":37,"m05":42,"m06":48,"m07":53,"m08":55,"m09":51,"m10":43,"m11":37,"m12":33},"geometry":{"type":"Polygon","coordinates":[[[0.9201370087885322,42.35475434920864],[0.9074817317528941,42.34707186417835],[0.9098925911078104,42.33431906501466],[0.9249530320439663,42.32925006716545],[0.9376047037238748,42.33693151196878],[0.9351995396528072,42.349682994524365],[0.9201370087885322,42.35475434920864]]]}},{"type":"Feature","properties":{"id":"8739624a9ffffff","confidence":"low","m01":42,"m02":42,"m03":44,"m04":49,"m05":55,"m06":63,"m07":70,"m08":72,"m09":66,"m10":56,"m11":48,"m12":43},"geometry":{"type":"Polygon","coordinates":[[[0.7654596192654182,42.203632441135255],[0.7528287879661587,42.195913514873126],[0.7552666358699915,42.18314999758801],[0.7703296352266872,42.17810670894661],[0.7829568967452655,42.185824578853186],[0.780524728530546,42.1985867934314],[0.7654596192654182,42.203632441135255]]]}},{"type":"Feature","properties":{"id":"8739624eaffffff","confidence":"low","m01":18,"m02":18,"m03":19,"m04":21,"m05":24,"m06":27,"m07":30,"m08":31,"m09":29,"m10":24,"m11":21,"m12":19},"geometry":{"type":"Polygon","coordinates":[[[0.9213211736302246,42.19908595041009],[0.9086942545055836,42.191389933439005],[0.9110994650298134,42.17863331026262],[0.9261259247659672,42.17357402132527],[0.9387492545076463,42.181268993609905],[0.9363497137266452,42.19402429919586],[0.9213211736302246,42.19908595041009]]]}},{"type":"Feature","properties":{"id":"873962512ffffff","confidence":"low","m01":28,"m02":28,"m03":29,"m04":33,"m05":37,"m06":42,"m07":46,"m08":48,"m09":44,"m10":37,"m11":32,"m12":29},"geometry":{"type":"Polygon","coordinates":[[[0.579633207397152,42.361192843596186],[0.5669702575987708,42.353459979031285],[0.569452476461276,42.34069225344297],[0.5845919287595955,42.33565867611946],[0.5972513168936575,42.34339047488912],[0.5947748142502443,42.35615691644754],[0.579633207397152,42.361192843596186]]]}},{"type":"Feature","properties":{"id":"87396259affffff","confidence":"low","m01":38,"m02":38,"m03":40,"m04":44,"m05":50,"m06":57,"m07":63,"m08":65,"m09":60,"m10":50,"m11":43,"m12":39},"geometry":{"type":"Polygon","coordinates":[[[0.581585408305012,42.20525920963257],[0.5689508464574994,42.19751294883027],[0.5714270958483041,42.18474133997131],[0.5865322164007739,42.1797172766722],[0.5991632322580286,42.187462467307775],[0.5966926734104054,42.20023279108065],[0.581585408305012,42.20525920963257]]]}},{"type":"Feature","properties":{"id":"873962600ffffff","confidence":"low","m01":48,"m02":48,"m03":50,"m04":56,"m05":63,"m06":72,"m07":79,"m08":82,"m09":76,"m10":64,"m11":54,"m12":50},"geometry":{"type":"Polygon","coordinates":[[[1.2574657554085857,42.20467754495382],[1.2597988131930966,42.19193728418944],[1.2697654819136732,42.18853990620228],[1.2748545466334307,42.187282985911935],[1.2876880053073183,42.19580973952913],[1.2852531057718681,42.20810755708908],[1.2750718529462806,42.210620775428175],[1.2700875938110305,42.21232018638542],[1.2574657554085857,42.20467754495382]]]}},{"type":"Feature","properties":{"id":"873962651ffffff","confidence":"low","m01":24,"m02":24,"m03":25,"m04":28,"m05":32,"m06":36,"m07":40,"m08":41,"m09":38,"m10":32,"m11":27,"m12":25},"geometry":{"type":"Polygon","coordinates":[[[1.4331802051961169,42.19489003796508],[1.4355960796159346,42.182579435672594],[1.4508779537696175,42.17878234369861],[1.4637487543813221,42.18729632941014],[1.4613362965797865,42.19960860246556],[1.4460496205194375,42.20340521924009],[1.4331802051961169,42.19489003796508]]]}},{"type":"Feature","properties":{"id":"87396268affffff","confidence":"low","m01":34,"m02":34,"m03":35,"m04":39,"m05":45,"m06":51,"m07":56,"m08":58,"m09":54,"m10":45,"m11":39,"m12":35},"geometry":{"type":"Polygon","coordinates":[[[1.2479425234392465,42.03011288593638],[1.250376900545972,42.01779952647392],[1.265611212472444,42.01401401542228],[1.2784159363585554,42.02254235691425],[1.2759849395955194,42.034857403731905],[1.2607458375763345,42.038642421890046],[1.2479425234392465,42.03011288593638]]]}},{"type":"Feature","properties":{"id":"8739626d9ffffff","confidence":"low","m01":44,"m02":44,"m03":46,"m04":51,"m05":58,"m06":66,"m07":73,"m08":75,"m09":69,"m10":58,"m11":50,"m12":45},"geometry":{"type":"Polygon","coordinates":[[[1.434022237132936,42.042361789949204],[1.4364335827633241,42.030035306327036],[1.451687557782759,42.0262231456307],[1.4645349704559036,42.034737945261156],[1.462127029044279,42.04706610568909],[1.446868269717607,42.05087778987261],[1.434022237132936,42.042361789949204]]]}},{"type":"Feature","properties":{"id":"873962731ffffff","confidence":"low","m01":20,"m02":20,"m03":21,"m04":23,"m05":26,"m06":30,"m07":33,"m08":34,"m09":31,"m10":26,"m11":23,"m12":21},"geometry":{"type":"Polygon","coordinates":[[[1.1037536815113114,42.35245009472278],[1.0911026472848497,42.34479490945907],[1.0934751122420934,42.33205039420783],[1.1084929274701394,42.32696239794144],[1.1211403330948224,42.33461655689833],[1.1187735519082076,42.34735973810788],[1.1037536815113114,42.35245009472278]]]}},{"type":"Feature","properties":{"id":"873962749ffffff","confidence":"low","m01":30,"m02":30,"m03":31,"m04":35,"m05":39,"m06":45,"m07":49,"m08":51,"m09":47,"m10":39,"m11":34,"m12":31},"geometry":{"type":"Polygon","coordinates":[[[1.432335084962103,42.347240977135705],[1.4347555052024625,42.334946401889944],[1.450065380724583,42.3311644011027],[1.4629596545752104,42.33967744955155],[1.460542663420508,42.35197368949603],[1.445227968295014,42.355755216488305],[1.432335084962103,42.347240977135705]]]}},{"type":"Feature","properties":{"id":"873962770ffffff","confidence":"low","m01":40,"m02":40,"m03":41,"m04":46,"m05":52,"m06":60,"m07":66,"m08":68,"m09":63,"m10":53,"m11":45,"m12":41},"geometry":{"type":"Polygon","coordinates":[[[1.2696888853561112,42.36770177069311],[1.2570387096265747,42.36007281188152],[1.2593770913590547,42.34733633986122],[1.274359972664353,42.34223017595037],[1.2870064972195807,42.349858121599574],[1.2846737914456614,42.362593244004344],[1.2696888853561112,42.36770177069311]]]}},{"type":"Feature","properties":{"id":"873962781ffffff","confidence":"low","m01":16,"m02":16,"m03":16,"m04":18,"m05":21,"m06":24,"m07":26,"m08":27,"m09":25,"m10":21,"m11":18,"m12":16},"geometry":{"type":"Polygon","coordinates":[[[1.1045248383126225,42.1969275610189],[1.091902144461908,42.189258770392335],[1.0942691328076912,42.17651046079774],[1.1092531565148354,42.17143227649581],[1.1218722378942796,42.179100036308846],[1.1195109078540029,42.19184701091819],[1.1045248383126225,42.1969275610189]]]}},{"type":"Feature","properties":{"id":"873962c00ffffff","confidence":"low","m01":26,"m02":26,"m03":27,"m04":30,"m05":34,"m06":39,"m07":43,"m08":44,"m09":41,"m10":34,"m11":29,"m12":27},"geometry":{"type":"Polygon","coordinates":[[[0.5859331438684019,42.69330618178669],[0.5732094472719045,42.68560377643016],[0.575702282490145,42.67284540431408],[0.590913043231498,42.66779071970351],[0.6036331430103481,42.67549206914053],[0.601146078719433,42.688249158774596],[0.5859331438684019,42.69330618178669]]]}},{"type":"Feature","properties":{"id":"873962c51ffffff","confidence":"low","m01":36,"m02":36,"m03":37,"m04":42,"m05":47,"m06":54,"m07":59,"m08":61,"m09":56,"m10":47,"m11":41,"m12":37},"geometry":{"type":"Polygon","coordinates":[[[0.7608301148238129,42.67078828991841],[0.748113778088942,42.66311007747312],[0.7505690970382215,42.65035867890308],[0.7657349955338516,42.64528679183179],[0.7784477146559191,42.652963960967405],[0.7759981527351034,42.6657140601543],[0.7608301148238129,42.67078828991841]]]}},{"type":"Feature","properties":{"id":"873962c8affffff","confidence":"low","m01":46,"m02":45,"m03":48,"m04":53,"m05":60,"m06":69,"m07":75,"m08":78,"m09":72,"m10":60,"m11":52,"m12":47},"geometry":{"type":"Polygon","coordinates":[[[0.5776721854314992,42.51705566099823],[0.5649807198595614,42.50933629340908],[0.5674689369157561,42.49657263836971],[0.582642877330465,42.49152963347083],[0.5953307654599401,42.4992479395666],[0.5928482904728878,42.51201031172317],[0.5776721854314992,42.51705566099823]]]}},{"type":"Feature","properties":{"id":"873962cd9ffffff","confidence":"low","m01":22,"m02":22,"m03":23,"m04":25,"m05":28,"m06":33,"m07":36,"m08":37,"m09":34,"m10":29,"m11":25,"m12":22},"geometry":{"type":"Polygon","coordinates":[[[0.7623802493339438,42.51514180374399],[0.7496925427319503,42.50744991996029],[0.7521420103234764,42.49469429537879],[0.7672734532837554,42.48963185483462],[0.7799575583232105,42.497322691029986],[0.7775138218057996,42.51007701502962],[0.7623802493339438,42.51514180374399]]]}},{"type":"Feature","properties":{"id":"873962d81ffffff","confidence":"low","m01":32,"m02":31,"m03":33,"m04":37,"m05":42,"m06":47,"m07":52,"m08":54,"m09":50,"m10":42,"m11":36,"m12":33},"geometry":{"type":"Polygon","coordinates":[[[0.418192140280281,42.67730142747846],[0.4054685011060063,42.669572469007335],[0.40799598581874763,42.65680645801674],[0.42324133184842117,42.651770671625776],[0.4359613983249812,42.65949856109631],[0.4334396913373091,42.67226330562263],[0.418192140280281,42.67730142747846]]]}},{"type":"Feature","properties":{"id":"8739630aaffffff","confidence":"low","m01":42,"m02":41,"m03":43,"m04":48,"m05":55,"m06":62,"m07":69,"m08":71,"m09":66,"m10":55,"m11":47,"m12":43},"geometry":{"type":"Polygon","coordinates":[[[2.4375896726574195,42.68275292423718],[2.4398910660643005,42.67041896563673],[2.4553530621861075,42.66651832902216],[2.468518477501174,42.67495203369667],[2.4662206641440583,42.6872875878665],[2.450753854397646,42.69118784201327],[2.4375896726574195,42.68275292423718]]]}},{"type":"Feature","properties":{"id":"8739630c3ffffff","confidence":"low","m01":18,"m02":17,"m03":18,"m04":20,"m05":23,"m06":26,"m07":29,"m08":30,"m09":28,"m10":23,"m11":20,"m12":18},"geometry":{"type":"Polygon","coordinates":[[[2.616365645592235,42.672832947847645],[2.618643593238717,42.660484922834094],[2.634118899715141,42.65655627716343],[2.6473210609718008,42.66497602369179],[2.6450467139562446,42.677325634408966],[2.6295666040335,42.681253913118645],[2.616365645592235,42.672832947847645]]]}},{"type":"Feature","properties":{"id":"8739632acffffff","confidence":"low","m01":28,"m02":27,"m03":29,"m04":32,"m05":36,"m06":41,"m07":45,"m08":47,"m09":43,"m10":36,"m11":31,"m12":28},"geometry":{"type":"Polygon","coordinates":[[[2.9568647053726456,42.6684620172197],[2.9590982000641026,42.656089085056585],[2.974600896532212,42.65210846710229],[2.9878748822437884,42.66050111881358],[2.9856450282631153,42.67287561701481],[2.9701375468495583,42.67685589769828],[2.9568647053726456,42.6684620172197]]]}},{"type":"Feature","properties":{"id":"873963391ffffff","confidence":"low","m01":38,"m02":37,"m03":39,"m04":44,"m05":49,"m06":56,"m07":62,"m08":64,"m09":59,"m10":50,"m11":43,"m12":39},"geometry":{"type":"Polygon","coordinates":[[[2.7776233404386677,42.67892993107159],[2.779880490939234,42.66657094752591],[2.7953704074258456,42.66261848735042],[2.8086079681581952,42.671025363760656],[2.806354438046532,42.683385923430436],[2.7908597257979593,42.68733803079389],[2.7776233404386677,42.67892993107159]]]}},{"type":"Feature","properties":{"id":"873963423ffffff","confidence":"low","m01":48,"m02":47,"m03":49,"m04":55,"m05":62,"m06":71,"m07":78,"m08":81,"m09":75,"m10":63,"m11":54,"m12":49},"geometry":{"type":"Polygon","coordinates":[[[2.115887303774727,42.516971330685934],[2.118225513983856,42.504643180788236],[2.1336286984007065,42.50077494734143],[2.146698481389883,42.50923527634046],[2.144363798137361,42.521565046533695],[2.1289558039130383,42.52543286764435],[2.115887303774727,42.516971330685934]]]}},{"type":"Feature","properties":{"id":"873963471ffffff","confidence":"low","m01":24,"m02":23,"m03":24,"m04":27,"m05":31,"m06":35,"m07":39,"m08":40,"m09":37,"m10":31,"m11":27,"m12":24},"geometry":{"type":"Polygon","coordinates":[[[2.276112520341909,42.52365533784294],[2.2784303192224877,42.51131605640528],[2.293848736466628,42.50742430259787],[2.306954156830009,42.51587222870652],[2.3046399048471713,42.52821312113529],[2.2892166845807096,42.53210447667979],[2.276112520341909,42.52365533784294]]]}},{"type":"Feature","properties":{"id":"87396348cffffff","confidence":"low","m01":33,"m02":33,"m03":35,"m04":39,"m05":44,"m06":50,"m07":55,"m08":57,"m09":53,"m10":44,"m11":38,"m12":34},"geometry":{"type":"Polygon","coordinates":[[[2.104774254046324,42.34354659134518],[2.1071090059694404,42.331200806467095],[2.1224790554138817,42.32731733087571],[2.1355191421730852,42.335780055419356],[2.133187901147937,42.34812746804453],[2.117813061445776,42.35201052858874],[2.104774254046324,42.34354659134518]]]}},{"type":"Feature","properties":{"id":"8739634c3ffffff","confidence":"low","m01":43,"m02":43,"m03":45,"m04":50,"m05":57,"m06":65,"m07":72,"m08":74,"m09":68,"m10":57,"m11":49,"m12":45},"geometry":{"type":"Polygon","coordinates":[[[2.2646482761322106,42.35013391402927],[2.26696270885435,42.337776976436636],[2.282347942677397,42.3338700621426],[2.2954235262961187,42.342320486651545],[2.293112624294818,42.35467904267908],[2.2777226069375773,42.35858555597601],[2.2646482761322106,42.35013391402927]]]}},{"type":"Feature","properties":{"id":"873963569ffffff","confidence":"low","m01":19,"m02":19,"m03":20,"m04":22,"m05":25,"m06":29,"m07":32,"m08":33,"m09":30,"m10":26,"m11":22,"m12":20},"geometry":{"type":"Polygon","coordinates":[[[2.276818663417064,42.67618697039913],[2.2791406469325675,42.66386407686765],[2.294587569067583,42.659987104228165],[2.3077173273845246,42.66843342191779],[2.3053989039551377,42.68075792040267],[2.2899471610945548,42.68463449646184],[2.276818663417064,42.67618697039913]]]}},{"type":"Feature","properties":{"id":"8739635a1ffffff","confidence":"low","m01":29,"m02":29,"m03":30,"m04":34,"m05":38,"m06":44,"m07":48,"m08":50,"m09":46,"m10":39,"m11":33,"m12":30},"geometry":{"type":"Polygon","coordinates":[[[1.9274974830806808,42.505438150570384],[1.929859504654613,42.49312281352596],[1.9452438477155274,42.48928185239225],[1.958270985225827,42.497756657429804],[1.9559124667271384,42.510073625744674],[1.9405233066130025,42.513914157959405],[1.9274974830806808,42.505438150570384]]]}},{"type":"Feature","properties":{"id":"873963666ffffff","confidence":"low","m01":39,"m02":39,"m03":41,"m04":46,"m05":52,"m06":59,"m07":65,"m08":67,"m09":62,"m10":52,"m11":45,"m12":40},"geometry":{"type":"Polygon","coordinates":[[[2.793704351088644,42.509737257630064],[2.7959548128546325,42.49735882127235],[2.8114144971547312,42.49338753659384],[2.8246284940720527,42.501795041657786],[2.822381639855186,42.51417505972975],[2.806917180162863,42.518145991249895],[2.793704351088644,42.509737257630064]]]}},{"type":"Feature","properties":{"id":"8739636acffffff","confidence":"low","m01":15,"m02":15,"m03":16,"m04":18,"m05":20,"m06":23,"m07":25,"m08":26,"m09":24,"m10":20,"m11":17,"m12":16},"geometry":{"type":"Polygon","coordinates":[[[2.6028255237472933,42.34633317542992],[2.6050962815593066,42.33395106307771],[2.6205097144449034,42.32999279885437],[2.633657155013985,42.33841701864701],[2.6313899680088926,42.35080073013691],[2.615971768619795,42.35475862291689],[2.6028255237472933,42.34633317542992]]]}},{"type":"Feature","properties":{"id":"8739636eeffffff","confidence":"low","m01":25,"m02":25,"m03":26,"m04":29,"m05":33,"m06":38,"m07":42,"m08":43,"m09":40,"m10":33,"m11":29,"m12":26},"geometry":{"type":"Polygon","coordinates":[[[2.792044441952686,42.356672716026694],[2.794290983616821,42.34427801906479],[2.809722121804729,42.34029220133408],[2.8229114752698785,42.34870143557937],[2.8206685277083365,42.36109772023001],[2.8052326315755205,42.36508318317119],[2.792044441952686,42.356672716026694]]]}},{"type":"Feature","properties":{"id":"87396370bffffff","confidence":"low","m01":35,"m02":35,"m03":37,"m04":41,"m05":46,"m06":53,"m07":58,"m08":60,"m09":55,"m10":46,"m11":40,"m12":36},"geometry":{"type":"Polygon","coordinates":[[[2.6150312873266532,42.520077700193816],[2.617305213635296,42.507713269920444],[2.6327519137950426,42.50376998968584],[2.6459294724742164,42.5121915086205],[2.6436591333859356,42.52455753060674],[2.628207647384103,42.52850044216815],[2.6150312873266532,42.520077700193816]]]}},{"type":"Feature","properties":{"id":"873963714ffffff","confidence":"low","m01":45,"m02":45,"m03":47,"m04":52,"m05":59,"m06":68,"m07":74,"m08":77,"m09":71,"m10":60,"m11":51,"m12":47},"geometry":{"type":"Polygon","coordinates":[[[2.454316914877998,42.51385889706906],[2.456611459692757,42.50150549268342],[2.4720433848722063,42.497585883890224],[2.4851855574236352,42.50602006248775],[2.4828945800869064,42.51837506808642],[2.467457861702929,42.52229429409374],[2.454316914877998,42.51385889706906]]]}},{"type":"Feature","properties":{"id":"87396379cffffff","confidence":"low","m01":21,"m02":21,"m03":22,"m04":25,"m05":28,"m06":32,"m07":35,"m08":36,"m09":33,"m10":28,"m11":24,"m12":22},"geometry":{"type":"Polygon","coordinates":[[[2.4532845855754326,42.36101666604737],[2.4555750467511994,42.34864701736419],[2.470978523793659,42.344712727291025],[2.484096314302426,42.35314847050663],[2.4818094073768697,42.36551972640566],[2.466401154680108,42.369453632090625],[2.4532845855754326,42.36101666604737]]]}},{"type":"Feature","properties":{"id":"873963c8affffff","confidence":"low","m01":31,"m02":31,"m03":32,"m04":36,"m05":41,"m06":47,"m07":51,"m08":53,"m09":49,"m10":41,"m11":35,"m12":32},"geometry":{"type":"Polygon","coordinates":[[[1.938243519642061,42.678532622741955],[1.9406091157040646,42.66623507986012],[1.956026673850127,42.66240947299865],[1.9690834716874026,42.67088183534711],[1.966721394724944,42.683181002015765],[1.9512989997895465,42.68700618275927],[1.938243519642061,42.678532622741955]]]}},{"type":"Feature","properties":{"id":"873963cdbffffff","confidence":"low","m01":41,"m02":41,"m03":43,"m04":48,"m05":54,"m06":62,"m07":68,"m08":70,"m09":65,"m10":54,"m11":47,"m12":42},"geometry":{"type":"Polygon","coordinates":[[[2.116297019047143,42.66940547219061],[2.1186394896185186,42.65709369419922],[2.1340711234527343,42.6532403094075],[2.1471651132332075,42.66169911349371],[2.144826182696535,42.67401250573047],[2.1293897213129855,42.67786547984943],[2.116297019047143,42.66940547219061]]]}},{"type":"Feature","properties":{"id":"873971011ffffff","confidence":"low","m01":17,"m02":17,"m03":18,"m04":20,"m05":22,"m06":25,"m07":28,"m08":29,"m09":27,"m10":22,"m11":19,"m12":18},"geometry":{"type":"Polygon","coordinates":[[[0.5792375644356172,41.56027778869704],[0.5667187668334898,41.552475726641454],[0.5691727865598545,41.53968960519538],[0.5841400168994887,41.53470683297589],[0.596655333513771,41.5425078053164],[0.5942069006376809,41.5552926392684],[0.5792375644356172,41.56027778869704]]]}},{"type":"Feature","properties":{"id":"873971053ffffff","confidence":"low","m01":27,"m02":27,"m03":28,"m04":31,"m05":35,"m06":40,"m07":44,"m08":46,"m09":42,"m10":36,"m11":31,"m12":28},"geometry":{"type":"Polygon","coordinates":[[[0.7614324044967843,41.559262557924285],[0.7489172648657741,41.55148752290438],[0.7513335822154888,41.53870960555724],[0.7662594627462375,41.53370802787181],[0.77877109824069,41.54148198679528],[0.7763603571883144,41.554258599180784],[0.7614324044967843,41.559262557924285]]]}},{"type":"Feature","properties":{"id":"873971099ffffff","confidence":"low","m01":37,"m02":37,"m03":38,"m04":43,"m05":48,"m06":55,"m07":61,"m08":63,"m09":58,"m10":49,"m11":42,"m12":38},"geometry":{"type":"Polygon","coordinates":[[[0.5811684728582525,41.404008324258164],[0.5686774212645225,41.396193398902454],[0.5711256062385613,41.38340436002532],[0.5860592806284113,41.37843153426795],[0.5985468663793613,41.38624536519909],[0.5961042434454424,41.399033115990406],[0.5811684728582525,41.404008324258164]]]}},{"type":"Feature","properties":{"id":"8739710dbffffff","confidence":"low","m01":47,"m02":47,"m03":49,"m04":54,"m05":62,"m06":70,"m07":77,"m08":80,"m09":74,"m10":62,"m11":53,"m12":48},"geometry":{"type":"Polygon","coordinates":[[[0.7629567249196639,41.403137523487096],[0.7504693176164977,41.395349549526465],[0.7528799677708211,41.38256874220373],[0.7677724735223749,41.37757721403806],[0.7802563919908266,41.38536410714735],[0.7778512933906883,41.3981436089551],[0.7629567249196639,41.403137523487096]]]}},{"type":"Feature","properties":{"id":"873971109ffffff","confidence":"low","m01":23,"m02":23,"m03":24,"m04":27,"m05":30,"m06":34,"m07":38,"m08":39,"m09":36,"m10":30,"m11":26,"m12":24},"geometry":{"type":"Polygon","coordinates":[[[0.5772980307021408,41.71648810763433],[0.5647513635848143,41.708699013395005],[0.5672112458174615,41.69591599867956],[0.5822121832012873,41.69092336469053],[0.59475535408628,41.69871137386009],[0.5923010836804015,41.71149310176407],[0.5772980307021408,41.71648810763433]]]}},{"type":"Feature","properties":{"id":"87397114bffffff","confidence":"low","m01":33,"m02":33,"m03":34,"m04":38,"m05":43,"m06":49,"m07":54,"m08":56,"m09":52,"m10":43,"m11":37,"m12":34},"geometry":{"type":"Polygon","coordinates":[[[0.7599012812254462,41.71532860122994],[0.7473582858341946,41.70756660949156],[0.7497802970089875,41.69479177086108],[0.7647397022152366,41.68978022796544],[0.77727917806723,41.69754114829843],[0.774862768098683,41.710314682611305],[0.7599012812254462,41.71532860122994]]]}},{"type":"Feature","properties":{"id":"873971223ffffff","confidence":"low","m01":43,"m02":42,"m03":44,"m04":50,"m05":56,"m06":64,"m07":71,"m08":73,"m09":67,"m10":57,"m11":49,"m12":44},"geometry":{"type":"Polygon","coordinates":[[[1.0974099209333337,41.55369614751515],[1.08490275570888,41.54597069539122],[1.0872495010182088,41.53320820493078],[1.102097855860223,41.52817250323181],[1.114601475399701,41.53589690443813],[1.1122602856038506,41.54865805794728],[1.0974099209333337,41.55369614751515]]]}},{"type":"Feature","properties":{"id":"873971271ffffff","confidence":"low","m01":19,"m02":19,"m03":20,"m04":22,"m05":25,"m06":28,"m07":31,"m08":32,"m09":30,"m10":25,"m11":21,"m12":19},"geometry":{"type":"Polygon","coordinates":[[[1.2411530953093954,41.55094498442168],[1.243574422182007,41.53858365476512],[1.2587211273165135,41.53475235379037],[1.2714512403801261,41.54328287991045],[1.2690332545253828,41.55564591633741],[1.2538818135801773,41.55947672005573],[1.2411530953093954,41.55094498442168]]]}},{"type":"Feature","properties":{"id":"8739712abffffff","confidence":"low","m01":29,"m02":29,"m03":30,"m04":33,"m05":38,"m06":43,"m07":47,"m08":49,"m09":45,"m10":38,"m11":33,"m12":30},"geometry":{"type":"Polygon","coordinates":[[[1.0858013251309921,41.390503304124245],[1.0882373374702914,41.37813828859429],[1.1033404893243859,41.37431449200398],[1.1160123512467466,41.3828562230522],[1.1135796482707192,41.39522296009444],[1.098471773003015,41.399046244752725],[1.0858013251309921,41.390503304124245]]]}},{"type":"Feature","properties":{"id":"8739712c1ffffff","confidence":"low","m01":39,"m02":38,"m03":40,"m04":45,"m05":51,"m06":58,"m07":64,"m08":66,"m09":61,"m10":51,"m11":44,"m12":40},"geometry":{"type":"Polygon","coordinates":[[[1.2423358052705709,41.3978295369544],[1.2447525861762934,41.38545296257922],[1.2598718848535497,41.38160661278685],[1.2725791201966854,41.39013733571443],[1.2701656683200147,41.40251562281906],[1.255041651067685,41.4063614744467],[1.2423358052705709,41.3978295369544]]]}},{"type":"Feature","properties":{"id":"8739713a1ffffff","confidence":"low","m01":15,"m02":15,"m03":15,"m04":17,"m05":19,"m06":22,"m07":24,"m08":25,"m09":23,"m10":19,"m11":17,"m12":15},"geometry":{"type":"Polygon","coordinates":[[[0.9158732642520192,41.55523401585991],[0.9033619597250171,41.54748163944406],[0.9057462330785029,41.53471072531517],[0.9206362441653564,41.52969350699358],[0.9331440254793368,41.53744481881292],[0.9307653187550166,41.55021441323328],[0.9158732642520192,41.55523401585991]]]}},{"type":"Feature","properties":{"id":"873971623ffffff","confidence":"low","m01":25,"m02":24,"m03":26,"m04":29,"m05":32,"m06":37,"m07":41,"m08":42,"m09":39,"m10":33,"m11":28,"m12":25},"geometry":{"type":"Polygon","coordinates":[[[0.7644742877294559,41.246955784552256],[0.7520144901402229,41.239154976699254],[0.7544194995429718,41.22637146847815],[0.7692787794087237,41.22139007377032],[0.7817351033651078,41.229189795954234],[0.7793356209377154,41.241971998197755],[0.7644742877294559,41.246955784552256]]]}},{"type":"Feature","properties":{"id":"873971671ffffff","confidence":"low","m01":35,"m02":34,"m03":36,"m04":40,"m05":45,"m06":52,"m07":57,"m08":59,"m09":54,"m10":46,"m11":39,"m12":36},"geometry":{"type":"Polygon","coordinates":[[[0.9182284454525296,41.243172370743665],[0.9057724524456622,41.235394097946546],[0.9081457014761116,41.22261764569913],[0.9229694259200332,41.21762078659043],[0.93542192647381,41.22539798513872],[0.9330541948742774,41.23817311673002],[0.9182284454525296,41.243172370743665]]]}},{"type":"Feature","properties":{"id":"8739716abffffff","confidence":"low","m01":45,"m02":44,"m03":46,"m04":52,"m05":58,"m06":67,"m07":73,"m08":76,"m09":70,"m10":59,"m11":51,"m12":46},"geometry":{"type":"Polygon","coordinates":[[[0.7659851377614242,41.09071963278284],[0.7535528280834828,41.08290609678493],[0.7559522229942534,41.07012007706231],[0.7707784248736177,41.06514889937112],[0.7832072760215022,41.07296134482044],[0.7808133836700865,41.085746058193465],[0.7659851377614242,41.09071963278284]]]}},{"type":"Feature","properties":{"id":"8739716c1ffffff","confidence":"low","m01":21,"m02":20,"m03":21,"m04":24,"m05":27,"m06":31,"m07":34,"m08":35,"m09":32,"m10":27,"m11":23,"m12":21},"geometry":{"type":"Polygon","coordinates":[[[0.9193982291099806,41.0870590280526],[0.9069697088883215,41.07926796512878],[0.9093374838289351,41.06648902705229],[0.9241282857537126,41.06150247258039],[0.9365533287514309,41.06929245633643],[0.9341910468868156,41.08207007341885],[0.9193982291099806,41.0870590280526]]]}},{"type":"Feature","properties":{"id":"873971769ffffff","confidence":"low","m01":31,"m02":30,"m03":32,"m04":35,"m05":40,"m06":46,"m07":50,"m08":52,"m09":48,"m10":40,"m11":35,"m12":31},"geometry":{"type":"Polygon","coordinates":[[[0.9170534687187908,41.399231462085936],[0.9045698812136622,41.391466085024106],[0.9069486296564615,41.378692307531885],[0.9218054234927558,41.37368522701334],[0.9342855032154079,41.381449534683796],[0.9319122967207716,41.39422199194841],[0.9170534687187908,41.399231462085936]]]}},{"type":"Feature","properties":{"id":"8739717a1ffffff","confidence":"low","m01":41,"m02":40,"m03":42,"m04":47,"m05":53,"m06":61,"m07":67,"m08":69,"m09":64,"m10":53,"m11":46,"m12":42},"geometry":{"type":"Polygon","coordinates":[[[0.58309081337454,41.24768200745443],[0.5706273851013807,41.23985432402367],[0.5730697628811907,41.227062557352866],[0.5879700314022859,41.22209976237908],[0.6004300088792002,41.22992634661274],[0.5979931684942087,41.24271682469676],[0.58309081337454,41.24768200745443]]]}},{"type":"Feature","properties":{"id":"873971862ffffff","confidence":"low","m01":16,"m02":16,"m03":17,"m04":19,"m05":22,"m06":25,"m07":27,"m08":28,"m09":26,"m10":22,"m11":19,"m12":17},"geometry":{"type":"Polygon","coordinates":[[[0.5835288475352632,42.04925702287552],[0.5709225466732323,42.04149746732499],[0.5733928551093357,42.02872216289479],[0.5884637992257324,42.02370769973928],[0.601066569668374,42.03146618068307],[0.5986019262721366,42.04424019906197],[0.5835288475352632,42.04925702287552]]]}},{"type":"Feature","properties":{"id":"8739718eaffffff","confidence":"low","m01":26,"m02":26,"m03":27,"m04":31,"m05":35,"m06":40,"m07":44,"m08":45,"m09":42,"m10":35,"m11":30,"m12":27},"geometry":{"type":"Polygon","coordinates":[[[0.585463583936354,41.893188553145215],[0.5728854179441227,41.88541580507853],[0.5753498137394105,41.872636993181445],[0.5903867356783193,41.86763221595089],[0.6029613867197731,41.87540388490331],[0.6005026306320425,41.88818140987481],[0.585463583936354,41.893188553145215]]]}},{"type":"Feature","properties":{"id":"873971a02ffffff","confidence":"low","m01":36,"m02":36,"m03":38,"m04":42,"m05":48,"m06":54,"m07":60,"m08":62,"m09":57,"m10":48,"m11":41,"m12":37},"geometry":{"type":"Polygon","coordinates":[[[0.9236736230150431,41.8875468783367],[0.9111030401814628,41.879824101792025],[0.9134970319436526,41.86706039105912],[0.9284559871973346,41.8620207758342],[0.9410230122767493,41.86974249857041],[0.9386346396892211,41.88250489002033],[0.9236736230150431,41.8875468783367]]]}},{"type":"Feature","properties":{"id":"873971a51ffffff","confidence":"low","m01":46,"m02":46,"m03":48,"m04":54,"m05":61,"m06":69,"m07":76,"m08":79,"m09":73,"m10":61,"m11":52,"m12":48},"geometry":{"type":"Polygon","coordinates":[[[1.1060568201673069,41.88568074286742],[1.0934904278594195,41.87798504530802],[1.0958465384236726,41.86522970584476],[1.1107634332284213,41.86017140022512],[1.123326245005119,41.86786605775535],[1.1209757423267723,41.88062006061802],[1.1060568201673069,41.88568074286742]]]}},{"type":"Feature","properties":{"id":"873971a8affffff","confidence":"low","m01":22,"m02":22,"m03":23,"m04":26,"m05":29,"m06":33,"m07":37,"m08":38,"m09":35,"m10":29,"m11":25,"m12":23},"geometry":{"type":"Polygon","coordinates":[[[0.9248419783857164,41.731680727050154],[0.9122993756214435,41.72394472434436],[0.9146877970864163,41.71117775085363],[0.9296132270055657,41.70614809974358],[0.9421522876735733,41.71388304398049],[0.9397694603522866,41.726648697478],[0.9248419783857164,41.731680727050154]]]}},{"type":"Feature","properties":{"id":"873971ad9ffffff","confidence":"low","m01":32,"m02":32,"m03":34,"m04":37,"m05":42,"m06":48,"m07":53,"m08":55,"m09":51,"m10":43,"m11":37,"m12":33},"geometry":{"type":"Polygon","coordinates":[[[1.1068176912579948,41.729960967586486],[1.0942792618046755,41.72225196992564],[1.0966299708535625,41.7094933957191],[1.1115135262469475,41.704445156130795],[1.124048390980523,41.71215310905567],[1.1217032648601033,41.724910345989784],[1.1068176912579948,41.729960967586486]]]}},{"type":"Feature","properties":{"id":"873971b31ffffff","confidence":"low","m01":42,"m02":42,"m03":44,"m04":49,"m05":55,"m06":63,"m07":70,"m08":72,"m09":66,"m10":56,"m11":48,"m12":43},"geometry":{"type":"Polygon","coordinates":[[[0.7669889483930376,42.04777407325822],[0.754386363984949,42.0400417773621],[0.7568184431681011,42.02727459423868],[0.771847452347641,42.022241010320684],[0.7844464827085229,42.029972245374715],[0.7820200577807506,42.04273812486494],[0.7669889483930376,42.04777407325822]]]}},{"type":"Feature","properties":{"id":"873971b49ffffff","confidence":"low","m01":18,"m02":18,"m03":19,"m04":21,"m05":24,"m06":27,"m07":30,"m08":31,"m09":29,"m10":24,"m11":21,"m12":19},"geometry":{"type":"Polygon","coordinates":[[[1.1052925434907201,42.04133702650345],[1.0926980633303618,42.033654731532266],[1.0950596002696409,42.020902813734],[1.1100099841754867,42.015834526427405],[1.1226008678878134,42.023515786010584],[1.1202449639596348,42.03626636797063],[1.1052925434907201,42.04133702650345]]]}},{"type":"Feature","properties":{"id":"873971b72ffffff","confidence":"low","m01":28,"m02":28,"m03":29,"m04":33,"m05":37,"m06":42,"m07":46,"m08":48,"m09":44,"m10":37,"m11":32,"m12":29},"geometry":{"type":"Polygon","coordinates":[[[0.9225000331815908,42.04334937408968],[0.909901345174827,42.0356399263672],[0.9123009332294157,42.0228796658674],[0.9272935647482803,42.0178301712511],[0.939888679238962,42.02553856975962],[0.937494735558378,42.03829751177734],[0.9225000331815908,42.04334937408968]]]}},{"type":"Feature","properties":{"id":"873971b83ffffff","confidence":"low","m01":38,"m02":38,"m03":40,"m04":44,"m05":50,"m06":57,"m07":63,"m08":65,"m09":60,"m10":50,"m11":43,"m12":39},"geometry":{"type":"Polygon","coordinates":[[[0.7583633094656057,41.87133337199653],[0.7457923340559439,41.863584527164434],[0.7482200658731472,41.85081295563927],[0.7632131466631216,41.84579153220647],[0.7757805870290935,41.85353931025917],[0.7733584814942983,41.86630957820158],[0.7583633094656057,41.87133337199653]]]}},{"type":"Feature","properties":{"id":"873973a71ffffff","confidence":"low","m01":48,"m02":48,"m03":50,"m04":56,"m05":63,"m06":72,"m07":79,"m08":82,"m09":76,"m10":64,"m11":54,"m12":50},"geometry":{"type":"Polygon","coordinates":[[[0.586910017770472,40.934868014351046],[0.5745014713149075,40.9270151332382],[0.5769323166062396,40.914218481160844],[0.5917662196245971,40.909275999194804],[0.6041713450846528,40.91712777138053],[0.6017459883863374,40.929923134141326],[0.586910017770472,40.934868014351046]]]}},{"type":"Feature","properties":{"id":"873973ac3ffffff","confidence":"low","m01":24,"m02":24,"m03":25,"m04":28,"m05":32,"m06":36,"m07":40,"m08":41,"m09":38,"m10":32,"m11":27,"m12":25},"geometry":{"type":"Polygon","coordinates":[[[0.5788508271983822,40.75772082033556],[0.5664729367413632,40.74985235701698],[0.5688993908424825,40.737052808789706],[0.5836982734426295,40.73212301215187],[0.5960727608778537,40.739990360172456],[0.593651768600803,40.75278861981191],[0.5788508271983822,40.75772082033556]]]}},{"type":"Feature","properties":{"id":"873973b69ffffff","confidence":"low","m01":34,"m02":34,"m03":35,"m04":39,"m05":45,"m06":51,"m07":56,"m08":58,"m09":54,"m10":45,"m11":39,"m12":35},"geometry":{"type":"Polygon","coordinates":[[[0.5850046428807242,41.09130113647273],[0.5725687160520806,41.08346080089236],[0.5750053140017286,41.07066649638657],[0.5898723257307938,41.06571381613888],[0.6023048167119925,41.07355304768759],[0.599873731675284,41.08634606319638],[0.5850046428807242,41.09130113647273]]]}},{"type":"Feature","properties":{"id":"873975349ffffff","confidence":"low","m01":44,"m02":44,"m03":46,"m04":51,"m05":58,"m06":66,"m07":73,"m08":75,"m09":69,"m10":58,"m11":50,"m12":45},"geometry":{"type":"Polygon","coordinates":[[[0.42051989345748336,42.52139241447958],[0.40782491187488723,42.51364992087474],[0.41034621918335656,42.50087962206336],[0.4255567563051026,42.495853084260055],[0.4382481809304523,42.5035945046744],[0.435732625259743,42.516363535748276],[0.42051989345748336,42.52139241447958]]]}}]}