{"type":"FeatureCollection","features":[{"type":"Feature","properties":{"municipality_code":"900001","name":"Barcelona","comarca":"Barcelonès","id":"900001","confidence":"low","m01":42,"m02":42,"m03":44,"m04":49,"m05":55,"m06":63,"m07":70,"m08":72,"m09":66,"m10":56,"m11":48,"m12":43},"geometry":{"type":"Polygon","coordinates":[[[2.1149999999999998,41.344],[2.225,41.344],[2.225,41.43],[2.1149999999999998,41.43],[2.1149999999999998,41.344]]]}},{"type":"Feature","properties":{"municipality_code":"900002","name":"Girona","comarca":"Gironès","id":"900002","confidence":"low","m01":33,"m02":33,"m03":35,"m04":39,"m05":44,"m06":50,"m07":55,"m08":57,"m09":53,"m10":44,"m11":38,"m12":34},"geometry":{"type":"Polygon","coordinates":[[[2.7689999999999997,41.94],[2.879,41.94],[2.879,42.025999999999996],[2.7689999999999997,42.025999999999996],[2.7689999999999997,41.94]]]}},{"type":"Feature","properties":{"municipality_code":"900003","name":"Lleida","comarca":"Segrià","id":"900003","confidence":"low","m01":28,"m02":28,"m03":29,"m04":33,"m05":37,"m06":42,"m07":46,"m08":48,"m09":44,"m10":37,"m11":32,"m12":29},"geometry":{"type":"Polygon","coordinates":[[[0.567,41.574],[0.677,41.574],[0.677,41.66],[0.567,41.66],[0.567,41.574]]]}},{"type":"Feature","properties":{"municipality_code":"900004","name":"Tarragona","comarca":"Tarragonès","id":"900004","confidence":"low","m01":36,"m02":36,"m03":38,"m04":42,"m05":48,"m06":54,"m07":60,"m08":62,"m09":57,"m10":48,"m11":41,"m12":37},"geometry":{"type":"Polygon","coordinates":[[[1.1900000000000002,41.076],[1.3,41.076],[1.3,41.162],[1.1900000000000002,41.162],[1.1900000000000002,41.076]]]}},{"type":"Feature","properties":{"municipality_code":"900005","name":"Badalona","comarca":"Barcelonès","id":"900005","confidence":"low","m01":39,"m02":38,"m03":40,"m04":45,"m05":51,"m06":58,"m07":64,"m08":66,"m09":61,"m10":51,"m11":44,"m12":40},"geometry":{"type":"Polygon","coordinates":[[[2.19,41.404],[2.3000000000000003,41.404],[2.3000000000000003,41.49],[2.19,41.49],[2.19,41.404]]]}},{"type":"Feature","properties":{"municipality_code":"900006","name":"Sabadell","comarca":"Vallès Occidental","id":"900006","confidence":"low","m01":35,"m02":34,"m03":36,"m04":40,"m05":45,"m06":52,"m07":57,"m08":59,"m09":54,"m10":46,"m11":39,"m12":36},"geometry":{"type":"Polygon","coordinates":[[[2.053,41.505],[2.1630000000000003,41.505],[2.1630000000000003,41.591],[2.053,41.591],[2.053,41.505]]]}},{"type":"Feature","properties":{"municipality_code":"900007","name":"Terrassa","comarca":"Vallès Occidental","id":"900007","confidence":"low","m01":32,"m02":32,"m03":34,"m04":37,"m05":42,"m06":48,"m07":53,"m08":55,"m09":51,"m10":43,"m11":37,"m12":33},"geometry":{"type":"Polygon","coordinates":[[[1.953,41.52],[2.063,41.52],[2.063,41.606],[1.953,41.606],[1.953,41.52]]]}},{"type":"Feature","properties":{"municipality_code":"900008","name":"Mataró","comarca":"Maresme","id":"900008","confidence":"low","m01":36,"m02":36,"m03":37,"m04":42,"m05":47,"m06":54,"m07":59,"m08":61,"m09":56,"m10":47,"m11":41,"m12":37},"geometry":{"type":"Polygon","coordinates":[[[2.3899999999999997,41.497],[2.5,41.497],[2.5,41.583],[2.3899999999999997,41.583],[2.3899999999999997,41.497]]]}},{"type":"Feature","properties":{"municipality_code":"900009","name":"Reus","comarca":"Baix Camp","id":"900009","confidence":"low","m01":34,"m02":34,"m03":35,"m04":39,"m05":45,"m06":51,"m07":56,"m08":58,"m09":54,"m10":45,"m11":39,"m12":35},"geometry":{"type":"Polygon","coordinates":[[[1.0510000000000002,41.113],[1.161,41.113],[1.161,41.199],[1.0510000000000002,41.199],[1.0510000000000002,41.113]]]}},{"type":"Feature","properties":{"municipality_code":"900010","name":"Vic","comarca":"Osona","id":"900010","confidence":"low","m01":26,"m02":26,"m03":27,"m04":31,"m05":35,"m06":40,"m07":44,"m08":45,"m09":42,"m10":35,"m11":30,"m12":27},"geometry":{"type":"Polygon","coordinates":[[[2.199,41.887],[2.309,41.887],[2.309,41.973],[2.199,41.973],[2.199,41.887]]]}},{"type":"Feature","properties":{"municipality_code":"900011","name":"Figueres","comarca":"Alt Empordà","id":"900011","confidence":"low","m01":31,"m02":30,"m03":32,"m04":35,"m05":40,"m06":46,"m07":50,"m08":52,"m09":48,"m10":40,"m11":35,"m12":31},"geometry":{"type":"Polygon","coordinates":[[[2.908,42.225],[3.0180000000000002,42.225],[3.0180000000000002,42.311],[2.908,42.311],[2.908,42.225]]]}},{"type":"Feature","properties":{"municipality_code":"900012","name":"Manresa","comarca":"Bages","id":"900012","confidence":"low","m01":29,"m02":29,"m03":30,"m04":33,"m05":38,"m06":43,"m07":47,"m08":49,"m09":45,"m10":38,"m11":33,"m12":30},"geometry":{"type":"Polygon","coordinates":[[[1.7710000000000001,41.682],[1.881,41.682],[1.881,41.768],[1.7710000000000001,41.768],[1.7710000000000001,41.682]]]}}]}